{
"type": "FeatureCollection",
"name": "cep_04826240_matches",
"features": [
{ "type": "Feature", "properties": { "DIST": 390, "PAC": "32513799737520817L", "RAMAL": "8661445S1", "PN_CON": "448585", "UNI_TR_MT": "14323776", "CTMT": "RBO0108", "UNI_TR_AT": "DRBO-EQ-TR2", "SUB": "DRBO", "CONJ": 12967, "MUN": "3550308", "CEG_GD": " ", "BRR": "R WENCESLAU RALISH 316 JARDIM SERTAOZINHO", "CEP": "04826-240", "CLAS_SUB": "RE1", "CNAE": " ", "TIP_CC": "RES-Tipo05", "FAS_CON": "ABN", "GRU_TEN": "BT", "TEN_FORN": "10", "GRU_TAR": "B1", "SIT_ATIV": "AT", "DAT_CON": "01/08/1985", "CAR_INST": 5.0, "LIV": 0.0, "ARE_LOC": "UB", "TIP_SIST": "RD_INTERLIG", "ENE_01": 306.7, "ENE_02": 500.0, "ENE_03": 509.0, "ENE_04": 625.0, "ENE_05": 578.0, "ENE_06": 642.0, "ENE_07": 730.0, "ENE_08": 662.0, "ENE_09": 655.0, "ENE_10": 647.0, "ENE_11": 617.0, "ENE_12": 565.07, "DIC_01": 0.0, "DIC_02": 0.05, "DIC_03": 3.85, "DIC_04": 1.16, "DIC_05": 0.08, "DIC_06": 0.0, "DIC_07": 0.0, "DIC_08": 0.0, "DIC_09": 0.0, "DIC_10": 0.0, "DIC_11": 0.12, "DIC_12": 0.0, "FIC_01": 0.0, "FIC_02": 1.0, "FIC_03": 1.0, "FIC_04": 1.0, "FIC_05": 1.0, "FIC_06": 0.0, "FIC_07": 0.0, "FIC_08": 0.0, "FIC_09": 0.0, "FIC_10": 0.0, "FIC_11": 1.0, "FIC_12": 0.0, "SEMRED": 0.0, "DESCR": " ", "COD_ID": "3592d4bc81c31734b3c339194d03b411ed60182ed5e73a81ec693d9b1a01a4db", "__layer": "UCBT_tab", "TEN_CON": null, "POT_INST": null, "DEM_CONT": null }, "geometry": null },
{ "type": "Feature", "properties": { "DIST": 390, "PAC": "32523518737505694L", "RAMAL": "8667415S1", "PN_CON": "450841", "UNI_TR_MT": "14323776", "CTMT": "RBO0108", "UNI_TR_AT": "DRBO-EQ-TR2", "SUB": "DRBO", "CONJ": 12967, "MUN": "3550308", "CEG_GD": " ", "BRR": "R WENCESLAU RALISH 497 JARDIM SERTAOZINHO", "CEP": "04826-240", "CLAS_SUB": "RE1", "CNAE": " ", "TIP_CC": "RES-Tipo04", "FAS_CON": "ABN", "GRU_TEN": "BT", "TEN_FORN": "10", "GRU_TAR": "B1", "SIT_ATIV": "AT", "DAT_CON": "01/09/1986", "CAR_INST": 4.1, "LIV": 0.0, "ARE_LOC": "UB", "TIP_SIST": "RD_INTERLIG", "ENE_01": 123.58, "ENE_02": 250.0, "ENE_03": 387.0, "ENE_04": 299.0, "ENE_05": 361.0, "ENE_06": 328.0, "ENE_07": 297.0, "ENE_08": 309.0, "ENE_09": 299.0, "ENE_10": 351.0, "ENE_11": 329.0, "ENE_12": 285.45, "DIC_01": 0.0, "DIC_02": 0.05, "DIC_03": 3.85, "DIC_04": 1.16, "DIC_05": 0.08, "DIC_06": 0.0, "DIC_07": 0.0, "DIC_08": 0.0, "DIC_09": 0.0, "DIC_10": 0.0, "DIC_11": 0.12, "DIC_12": 0.0, "FIC_01": 0.0, "FIC_02": 1.0, "FIC_03": 1.0, "FIC_04": 1.0, "FIC_05": 1.0, "FIC_06": 0.0, "FIC_07": 0.0, "FIC_08": 0.0, "FIC_09": 0.0, "FIC_10": 0.0, "FIC_11": 1.0, "FIC_12": 0.0, "SEMRED": 0.0, "DESCR": " ", "COD_ID": "b29cd2c0e80d03461e9c0eacc6067577ee578562c3ff60a4d7e1eca1e66882ba", "__layer": "UCBT_tab", "TEN_CON": null, "POT_INST": null, "DEM_CONT": null }, "geometry": null },
{ "type": "Feature", "properties": { "DIST": 390, "PAC": "32531476737505886L", "RAMAL": "8673491S1", "PN_CON": "363594611", "UNI_TR_MT": "14324075", "CTMT": "RBO0108", "UNI_TR_AT": "DRBO-EQ-TR2", "SUB": "DRBO", "CONJ": 12967, "MUN": "3550308", "CEG_GD": " ", "BRR": "R WENCESLAU RALISH 20 JARDIM SERTAOZINHO", "CEP": "04826-240", "CLAS_SUB": "RE1", "CNAE": " ", "TIP_CC": "RES-Tipo02", "FAS_CON": "ABN", "GRU_TEN": "BT", "TEN_FORN": "10", "GRU_TAR": "B1", "SIT_ATIV": "AT", "DAT_CON": "01/08/1990", "CAR_INST": 5.4, "LIV": 0.0, "ARE_LOC": "UB", "TIP_SIST": "RD_INTERLIG", "ENE_01": 81.05, "ENE_02": 167.0, "ENE_03": 146.0, "ENE_04": 169.0, "ENE_05": 56.0, "ENE_06": 30.0, "ENE_07": 30.0, "ENE_08": 30.0, "ENE_09": 30.0, "ENE_10": 7.0, "ENE_11": 62.0, "ENE_12": 29.12, "DIC_01": 0.0, "DIC_02": 0.05, "DIC_03": 0.0, "DIC_04": 0.0, "DIC_05": 0.08, "DIC_06": 0.0, "DIC_07": 0.0, "DIC_08": 0.0, "DIC_09": 0.0, "DIC_10": 0.0, "DIC_11": 0.12, "DIC_12": 0.0, "FIC_01": 0.0, "FIC_02": 1.0, "FIC_03": 0.0, "FIC_04": 0.0, "FIC_05": 1.0, "FIC_06": 0.0, "FIC_07": 0.0, "FIC_08": 0.0, "FIC_09": 0.0, "FIC_10": 0.0, "FIC_11": 1.0, "FIC_12": 0.0, "SEMRED": 0.0, "DESCR": " ", "COD_ID": "008fdfa119c05d62b23e6c17f42e8f3a2cc3580cfdaba408ad3708cf889ce3af", "__layer": "UCBT_tab", "TEN_CON": null, "POT_INST": null, "DEM_CONT": null }, "geometry": null },
{ "type": "Feature", "properties": { "DIST": 390, "PAC": "32529649737506813L", "RAMAL": "8672449S1", "PN_CON": "452821", "UNI_TR_MT": "14324075", "CTMT": "RBO0108", "UNI_TR_AT": "DRBO-EQ-TR2", "SUB": "DRBO", "CONJ": 12967, "MUN": "3550308", "CEG_GD": "GD.SP.002.575.142", "BRR": "R WENCESLAU RALISH 43 JARDIM SERTAOZINHO", "CEP": "04826-240", "CLAS_SUB": "RE1", "CNAE": " ", "TIP_CC": "RES-Tipo05", "FAS_CON": "ABN", "GRU_TEN": "BT", "TEN_FORN": "10", "GRU_TAR": "B1", "SIT_ATIV": "AT", "DAT_CON": "01/08/1984", "CAR_INST": 3.0, "LIV": 0.0, "ARE_LOC": "UB", "TIP_SIST": "RD_INTERLIG", "ENE_01": 284.19, "ENE_02": 439.0, "ENE_03": 635.0, "ENE_04": 495.0, "ENE_05": 473.0, "ENE_06": 884.0, "ENE_07": 556.0, "ENE_08": 0.0, "ENE_09": 1566.0, "ENE_10": 426.0, "ENE_11": 418.0, "ENE_12": 298.07, "DIC_01": 0.0, "DIC_02": 0.05, "DIC_03": 0.0, "DIC_04": 0.0, "DIC_05": 0.08, "DIC_06": 0.0, "DIC_07": 0.0, "DIC_08": 0.0, "DIC_09": 0.0, "DIC_10": 0.0, "DIC_11": 0.12, "DIC_12": 0.0, "FIC_01": 0.0, "FIC_02": 1.0, "FIC_03": 0.0, "FIC_04": 0.0, "FIC_05": 1.0, "FIC_06": 0.0, "FIC_07": 0.0, "FIC_08": 0.0, "FIC_09": 0.0, "FIC_10": 0.0, "FIC_11": 1.0, "FIC_12": 0.0, "SEMRED": 0.0, "DESCR": " ", "COD_ID": "74ba5de583b17b2dbd0066d057769444f4259a6acabf0a03474df122d5b8f246", "__layer": "UCBT_tab", "TEN_CON": null, "POT_INST": null, "DEM_CONT": null }, "geometry": null },
{ "type": "Feature", "properties": { "DIST": 390, "PAC": "32529423737507204L", "RAMAL": "8672448S1", "PN_CON": "452821", "UNI_TR_MT": "14324075", "CTMT": "RBO0108", "UNI_TR_AT": "DRBO-EQ-TR2", "SUB": "DRBO", "CONJ": 12967, "MUN": "3550308", "CEG_GD": " ", "BRR": "R WENCESLAU RALISH 49 JARDIM SERTAOZINHO", "CEP": "04826-240", "CLAS_SUB": "RE1", "CNAE": " ", "TIP_CC": "RES-Tipo02", "FAS_CON": "ABN", "GRU_TEN": "BT", "TEN_FORN": "10", "GRU_TAR": "B1", "SIT_ATIV": "AT", "DAT_CON": "01/09/1969", "CAR_INST": 19.0, "LIV": 0.0, "ARE_LOC": "UB", "TIP_SIST": "RD_INTERLIG", "ENE_01": 145.59, "ENE_02": 150.0, "ENE_03": 196.0, "ENE_04": 196.0, "ENE_05": 169.0, "ENE_06": 218.0, "ENE_07": 220.0, "ENE_08": 187.0, "ENE_09": 213.0, "ENE_10": 201.0, "ENE_11": 204.0, "ENE_12": 165.05, "DIC_01": 0.0, "DIC_02": 0.05, "DIC_03": 0.0, "DIC_04": 0.0, "DIC_05": 0.08, "DIC_06": 0.0, "DIC_07": 0.0, "DIC_08": 0.0, "DIC_09": 0.0, "DIC_10": 0.0, "DIC_11": 0.12, "DIC_12": 0.0, "FIC_01": 0.0, "FIC_02": 1.0, "FIC_03": 0.0, "FIC_04": 0.0, "FIC_05": 1.0, "FIC_06": 0.0, "FIC_07": 0.0, "FIC_08": 0.0, "FIC_09": 0.0, "FIC_10": 0.0, "FIC_11": 1.0, "FIC_12": 0.0, "SEMRED": 0.0, "DESCR": " ", "COD_ID": "c15e4f162a064bd5845499741847233814cde25629ba2238078c0dee757a8ccf", "__layer": "UCBT_tab", "TEN_CON": null, "POT_INST": null, "DEM_CONT": null }, "geometry": null },
{ "type": "Feature", "properties": { "DIST": 390, "PAC": "32527595737510457L", "RAMAL": "8670831S1", "PN_CON": "452216", "UNI_TR_MT": "14324075", "CTMT": "RBO0108", "UNI_TR_AT": "DRBO-EQ-TR2", "SUB": "DRBO", "CONJ": 12967, "MUN": "3550308", "CEG_GD": " ", "BRR": "R WENCESLAU RALISH 67 JARDIM SERTAOZINHO", "CEP": "04826-240", "CLAS_SUB": "RE2", "CNAE": " ", "TIP_CC": "RES-Tipo03", "FAS_CON": "ABN", "GRU_TEN": "BT", "TEN_FORN": "10", "GRU_TAR": "B1BR", "SIT_ATIV": "AT", "DAT_CON": "01/01/1970", "CAR_INST": 2.2, "LIV": 0.0, "ARE_LOC": "UB", "TIP_SIST": "RD_INTERLIG", "ENE_01": 86.55, "ENE_02": 173.0, "ENE_03": 164.0, "ENE_04": 161.0, "ENE_05": 157.0, "ENE_06": 139.0, "ENE_07": 179.0, "ENE_08": 223.0, "ENE_09": 203.0, "ENE_10": 184.0, "ENE_11": 183.0, "ENE_12": 173.79, "DIC_01": 0.0, "DIC_02": 0.05, "DIC_03": 3.11, "DIC_04": 0.0, "DIC_05": 0.08, "DIC_06": 0.0, "DIC_07": 0.0, "DIC_08": 0.0, "DIC_09": 0.0, "DIC_10": 0.0, "DIC_11": 0.12, "DIC_12": 0.0, "FIC_01": 0.0, "FIC_02": 1.0, "FIC_03": 1.0, "FIC_04": 0.0, "FIC_05": 1.0, "FIC_06": 0.0, "FIC_07": 0.0, "FIC_08": 0.0, "FIC_09": 0.0, "FIC_10": 0.0, "FIC_11": 1.0, "FIC_12": 0.0, "SEMRED": 0.0, "DESCR": " ", "COD_ID": "abf6531d8443053e47964a5cb51617338dc9e72ff316755bdb1ee22f0ecf4696", "__layer": "UCBT_tab", "TEN_CON": null, "POT_INST": null, "DEM_CONT": null }, "geometry": null },
{ "type": "Feature", "properties": { "DIST": 390, "PAC": "32528570737511020L", "RAMAL": "8670827S1", "PN_CON": "452216", "UNI_TR_MT": "14324075", "CTMT": "RBO0108", "UNI_TR_AT": "DRBO-EQ-TR2", "SUB": "DRBO", "CONJ": 12967, "MUN": "3550308", "CEG_GD": " ", "BRR": "R WENCESLAU RALISH 72 JARDIM SERTAOZINHO", "CEP": "04826-240", "CLAS_SUB": "RE1", "CNAE": " ", "TIP_CC": "RES-Tipo04", "FAS_CON": "ABN", "GRU_TEN": "BT", "TEN_FORN": "10", "GRU_TAR": "B1", "SIT_ATIV": "AT", "DAT_CON": "01/12/1982", "CAR_INST": 3.0, "LIV": 0.0, "ARE_LOC": "UB", "TIP_SIST": "RD_INTERLIG", "ENE_01": 0.0, "ENE_02": 694.0, "ENE_03": 3.0, "ENE_04": 112.0, "ENE_05": 290.0, "ENE_06": 260.0, "ENE_07": 239.0, "ENE_08": 231.0, "ENE_09": 232.0, "ENE_10": 231.0, "ENE_11": 325.0, "ENE_12": 264.09, "DIC_01": 0.0, "DIC_02": 0.05, "DIC_03": 0.0, "DIC_04": 0.0, "DIC_05": 0.08, "DIC_06": 0.0, "DIC_07": 0.0, "DIC_08": 0.0, "DIC_09": 0.0, "DIC_10": 0.0, "DIC_11": 0.12, "DIC_12": 0.0, "FIC_01": 0.0, "FIC_02": 1.0, "FIC_03": 0.0, "FIC_04": 0.0, "FIC_05": 1.0, "FIC_06": 0.0, "FIC_07": 0.0, "FIC_08": 0.0, "FIC_09": 0.0, "FIC_10": 0.0, "FIC_11": 1.0, "FIC_12": 0.0, "SEMRED": 0.0, "DESCR": " ", "COD_ID": "5a25332b4ac437fd59752b042021972c9417600399970c74ff06d509c92c8775", "__layer": "UCBT_tab", "TEN_CON": null, "POT_INST": null, "DEM_CONT": null }, "geometry": null },
{ "type": "Feature", "properties": { "DIST": 390, "PAC": "32528464737511215L", "RAMAL": "8670833S1", "PN_CON": "452216", "UNI_TR_MT": "14324075", "CTMT": "RBO0108", "UNI_TR_AT": "DRBO-EQ-TR2", "SUB": "DRBO", "CONJ": 12967, "MUN": "3550308", "CEG_GD": " ", "BRR": "R WENCESLAU RALISH 78 JARDIM SERTAOZINHO", "CEP": "04826-240", "CLAS_SUB": "RE1", "CNAE": " ", "TIP_CC": "RES-Tipo02", "FAS_CON": "ABN", "GRU_TEN": "BT", "TEN_FORN": "10", "GRU_TAR": "B1", "SIT_ATIV": "AT", "DAT_CON": "01/09/1984", "CAR_INST": 5.5, "LIV": 0.0, "ARE_LOC": "UB", "TIP_SIST": "RD_INTERLIG", "ENE_01": 107.07, "ENE_02": 298.0, "ENE_03": 206.0, "ENE_04": 218.0, "ENE_05": 169.0, "ENE_06": 171.0, "ENE_07": 207.0, "ENE_08": 171.0, "ENE_09": 175.0, "ENE_10": 186.0, "ENE_11": 173.0, "ENE_12": 162.14, "DIC_01": 0.0, "DIC_02": 0.05, "DIC_03": 0.0, "DIC_04": 0.0, "DIC_05": 0.08, "DIC_06": 0.0, "DIC_07": 0.0, "DIC_08": 0.0, "DIC_09": 0.0, "DIC_10": 0.0, "DIC_11": 0.12, "DIC_12": 0.0, "FIC_01": 0.0, "FIC_02": 1.0, "FIC_03": 0.0, "FIC_04": 0.0, "FIC_05": 1.0, "FIC_06": 0.0, "FIC_07": 0.0, "FIC_08": 0.0, "FIC_09": 0.0, "FIC_10": 0.0, "FIC_11": 1.0, "FIC_12": 0.0, "SEMRED": 0.0, "DESCR": " ", "COD_ID": "33b47f4b31090d243d4dc7651be1f2f2f6eda5c25407719a88758e128ad602fb", "__layer": "UCBT_tab", "TEN_CON": null, "POT_INST": null, "DEM_CONT": null }, "geometry": null },
{ "type": "Feature", "properties": { "DIST": 390, "PAC": "32528351737511397L", "RAMAL": "8670830S1", "PN_CON": "452216", "UNI_TR_MT": "14324075", "CTMT": "RBO0108", "UNI_TR_AT": "DRBO-EQ-TR2", "SUB": "DRBO", "CONJ": 12967, "MUN": "3550308", "CEG_GD": " ", "BRR": "R WENCESLAU RALISH 86 JARDIM SERTAOZINHO", "CEP": "04826-240", "CLAS_SUB": "RE1", "CNAE": " ", "TIP_CC": "RES-Tipo02", "FAS_CON": "ABN", "GRU_TEN": "BT", "TEN_FORN": "10", "GRU_TAR": "B1", "SIT_ATIV": "AT", "DAT_CON": "01/09/1984", "CAR_INST": 8.5, "LIV": 0.0, "ARE_LOC": "UB", "TIP_SIST": "RD_INTERLIG", "ENE_01": 76.55, "ENE_02": 149.0, "ENE_03": 142.0, "ENE_04": 154.0, "ENE_05": 145.0, "ENE_06": 135.0, "ENE_07": 45.0, "ENE_08": 235.0, "ENE_09": 133.0, "ENE_10": 151.0, "ENE_11": 146.0, "ENE_12": 135.92, "DIC_01": 0.0, "DIC_02": 0.05, "DIC_03": 0.0, "DIC_04": 0.0, "DIC_05": 0.08, "DIC_06": 0.0, "DIC_07": 0.0, "DIC_08": 0.0, "DIC_09": 0.0, "DIC_10": 0.0, "DIC_11": 0.12, "DIC_12": 0.0, "FIC_01": 0.0, "FIC_02": 1.0, "FIC_03": 0.0, "FIC_04": 0.0, "FIC_05": 1.0, "FIC_06": 0.0, "FIC_07": 0.0, "FIC_08": 0.0, "FIC_09": 0.0, "FIC_10": 0.0, "FIC_11": 1.0, "FIC_12": 0.0, "SEMRED": 0.0, "DESCR": " ", "COD_ID": "9c8b18e3368c799fcc09228bf1d6f1c227bfc0f23ac6948088e5adcbe8d9f1d7", "__layer": "UCBT_tab", "TEN_CON": null, "POT_INST": null, "DEM_CONT": null }, "geometry": null },
{ "type": "Feature", "properties": { "DIST": 390, "PAC": "32528254737511570L", "RAMAL": "8670828S1", "PN_CON": "452216", "UNI_TR_MT": "14324075", "CTMT": "RBO0108", "UNI_TR_AT": "DRBO-EQ-TR2", "SUB": "DRBO", "CONJ": 12967, "MUN": "3550308", "CEG_GD": " ", "BRR": "R WENCESLAU RALISH 84 JARDIM SERTAOZINHO", "CEP": "04826-240", "CLAS_SUB": "RE1", "CNAE": " ", "TIP_CC": "RES-Tipo02", "FAS_CON": "ABN", "GRU_TEN": "BT", "TEN_FORN": "10", "GRU_TAR": "B1", "SIT_ATIV": "AT", "DAT_CON": "01/08/1984", "CAR_INST": 8.0, "LIV": 0.0, "ARE_LOC": "UB", "TIP_SIST": "RD_INTERLIG", "ENE_01": 91.56, "ENE_02": 158.0, "ENE_03": 197.0, "ENE_04": 194.0, "ENE_05": 208.0, "ENE_06": 181.0, "ENE_07": 207.0, "ENE_08": 193.0, "ENE_09": 186.0, "ENE_10": 222.0, "ENE_11": 224.0, "ENE_12": 184.47, "DIC_01": 0.0, "DIC_02": 0.05, "DIC_03": 0.0, "DIC_04": 0.0, "DIC_05": 0.08, "DIC_06": 0.0, "DIC_07": 0.0, "DIC_08": 0.0, "DIC_09": 0.0, "DIC_10": 0.0, "DIC_11": 0.12, "DIC_12": 0.0, "FIC_01": 0.0, "FIC_02": 1.0, "FIC_03": 0.0, "FIC_04": 0.0, "FIC_05": 1.0, "FIC_06": 0.0, "FIC_07": 0.0, "FIC_08": 0.0, "FIC_09": 0.0, "FIC_10": 0.0, "FIC_11": 1.0, "FIC_12": 0.0, "SEMRED": 0.0, "DESCR": " ", "COD_ID": "4823bbe3584516cf901d3df87c3464455ae3b4f2767c0b312ad8e4cacde63864", "__layer": "UCBT_tab", "TEN_CON": null, "POT_INST": null, "DEM_CONT": null }, "geometry": null },
{ "type": "Feature", "properties": { "DIST": 390, "PAC": "32528167737511743L", "RAMAL": "8670829S1", "PN_CON": "452216", "UNI_TR_MT": "14324075", "CTMT": "RBO0108", "UNI_TR_AT": "DRBO-EQ-TR2", "SUB": "DRBO", "CONJ": 12967, "MUN": "3550308", "CEG_GD": " ", "BRR": "R WENCESLAU RALISH 88 JARDIM SERTAOZINHO", "CEP": "04826-240", "CLAS_SUB": "RE1", "CNAE": " ", "TIP_CC": "RES-Tipo02", "FAS_CON": "ABN", "GRU_TEN": "BT", "TEN_FORN": "10", "GRU_TAR": "B1", "SIT_ATIV": "AT", "DAT_CON": "01/08/1984", "CAR_INST": 8.7, "LIV": 0.0, "ARE_LOC": "UB", "TIP_SIST": "RD_INTERLIG", "ENE_01": 15.51, "ENE_02": 30.0, "ENE_03": 30.0, "ENE_04": 30.0, "ENE_05": 14.0, "ENE_06": 201.0, "ENE_07": 227.0, "ENE_08": 212.0, "ENE_09": 200.0, "ENE_10": 225.0, "ENE_11": 162.0, "ENE_12": 160.2, "DIC_01": 0.0, "DIC_02": 0.05, "DIC_03": 0.0, "DIC_04": 0.0, "DIC_05": 0.08, "DIC_06": 0.0, "DIC_07": 0.0, "DIC_08": 0.0, "DIC_09": 0.0, "DIC_10": 0.0, "DIC_11": 0.12, "DIC_12": 0.0, "FIC_01": 0.0, "FIC_02": 1.0, "FIC_03": 0.0, "FIC_04": 0.0, "FIC_05": 1.0, "FIC_06": 0.0, "FIC_07": 0.0, "FIC_08": 0.0, "FIC_09": 0.0, "FIC_10": 0.0, "FIC_11": 1.0, "FIC_12": 0.0, "SEMRED": 0.0, "DESCR": " ", "COD_ID": "9c82e7624cf911b2fca16728e8c2f71db9c3aa3326bc362313556a49005e264b", "__layer": "UCBT_tab", "TEN_CON": null, "POT_INST": null, "DEM_CONT": null }, "geometry": null },
{ "type": "Feature", "properties": { "DIST": 390, "PAC": "32527954737512108L", "RAMAL": "8670835S1", "PN_CON": "452216", "UNI_TR_MT": "14324075", "CTMT": "RBO0108", "UNI_TR_AT": "DRBO-EQ-TR2", "SUB": "DRBO", "CONJ": 12967, "MUN": "3550308", "CEG_GD": " ", "BRR": "R WENCESLAU RALISH 106 JARDIM SERTAOZINHO", "CEP": "04826-240", "CLAS_SUB": "RE1", "CNAE": " ", "TIP_CC": "RES-Tipo02", "FAS_CON": "ABN", "GRU_TEN": "BT", "TEN_FORN": "10", "GRU_TAR": "B1", "SIT_ATIV": "AT", "DAT_CON": "01/02/1988", "CAR_INST": 5.0, "LIV": 0.0, "ARE_LOC": "UB", "TIP_SIST": "RD_INTERLIG", "ENE_01": 115.57, "ENE_02": 215.0, "ENE_03": 221.0, "ENE_04": 215.0, "ENE_05": 235.0, "ENE_06": 201.0, "ENE_07": 212.0, "ENE_08": 223.0, "ENE_09": 185.0, "ENE_10": 246.0, "ENE_11": 217.0, "ENE_12": 202.92, "DIC_01": 0.0, "DIC_02": 0.05, "DIC_03": 0.0, "DIC_04": 0.0, "DIC_05": 0.08, "DIC_06": 0.0, "DIC_07": 0.0, "DIC_08": 0.0, "DIC_09": 0.0, "DIC_10": 0.0, "DIC_11": 0.12, "DIC_12": 0.0, "FIC_01": 0.0, "FIC_02": 1.0, "FIC_03": 0.0, "FIC_04": 0.0, "FIC_05": 1.0, "FIC_06": 0.0, "FIC_07": 0.0, "FIC_08": 0.0, "FIC_09": 0.0, "FIC_10": 0.0, "FIC_11": 1.0, "FIC_12": 0.0, "SEMRED": 0.0, "DESCR": " ", "COD_ID": "805319223841dc68fb80b3ebf811dc009be6a6255b16c590de8213332aac3033", "__layer": "UCBT_tab", "TEN_CON": null, "POT_INST": null, "DEM_CONT": null }, "geometry": null },
{ "type": "Feature", "properties": { "DIST": 390, "PAC": "32527858737512303L", "RAMAL": "8670834S1", "PN_CON": "452216", "UNI_TR_MT": "14324075", "CTMT": "RBO0108", "UNI_TR_AT": "DRBO-EQ-TR2", "SUB": "DRBO", "CONJ": 12967, "MUN": "3550308", "CEG_GD": " ", "BRR": "R WENCESLAU RALISH 112 JARDIM SERTAOZINHO", "CEP": "04826-240", "CLAS_SUB": "RE1", "CNAE": " ", "TIP_CC": "RES-Tipo05", "FAS_CON": "ABN", "GRU_TEN": "BT", "TEN_FORN": "10", "GRU_TAR": "B1", "SIT_ATIV": "AT", "DAT_CON": "01/07/1986", "CAR_INST": 12.0, "LIV": 0.0, "ARE_LOC": "UB", "TIP_SIST": "RD_INTERLIG", "ENE_01": 281.18, "ENE_02": 511.0, "ENE_03": 553.0, "ENE_04": 543.0, "ENE_05": 574.0, "ENE_06": 438.0, "ENE_07": 497.0, "ENE_08": 481.0, "ENE_09": 416.0, "ENE_10": 496.0, "ENE_11": 470.0, "ENE_12": 428.17, "DIC_01": 0.0, "DIC_02": 0.05, "DIC_03": 0.0, "DIC_04": 0.0, "DIC_05": 0.08, "DIC_06": 0.0, "DIC_07": 0.0, "DIC_08": 0.0, "DIC_09": 0.0, "DIC_10": 0.0, "DIC_11": 0.12, "DIC_12": 0.0, "FIC_01": 0.0, "FIC_02": 1.0, "FIC_03": 0.0, "FIC_04": 0.0, "FIC_05": 1.0, "FIC_06": 0.0, "FIC_07": 0.0, "FIC_08": 0.0, "FIC_09": 0.0, "FIC_10": 0.0, "FIC_11": 1.0, "FIC_12": 0.0, "SEMRED": 0.0, "DESCR": " ", "COD_ID": "7555aa65c127acede488229c969f1b12ee9998de7c698a0f5270ef1c9bd72be2", "__layer": "UCBT_tab", "TEN_CON": null, "POT_INST": null, "DEM_CONT": null }, "geometry": null },
{ "type": "Feature", "properties": { "DIST": 390, "PAC": "32525755737513689L", "RAMAL": "8669548S1", "PN_CON": "451695", "UNI_TR_MT": "14324075", "CTMT": "RBO0108", "UNI_TR_AT": "DRBO-EQ-TR2", "SUB": "DRBO", "CONJ": 12967, "MUN": "3550308", "CEG_GD": " ", "BRR": "R WENCESLAU RALISH 103 JARDIM SERTAOZINHO", "CEP": "04826-240", "CLAS_SUB": "RE1", "CNAE": " ", "TIP_CC": "RES-Tipo05", "FAS_CON": "ABN", "GRU_TEN": "BT", "TEN_FORN": "10", "GRU_TAR": "B1", "SIT_ATIV": "AT", "DAT_CON": "01/03/1977", "CAR_INST": 14.9, "LIV": 0.0, "ARE_LOC": "UB", "TIP_SIST": "RD_INTERLIG", "ENE_01": 239.66, "ENE_02": 302.0, "ENE_03": 608.0, "ENE_04": 441.0, "ENE_05": 457.0, "ENE_06": 353.0, "ENE_07": 332.0, "ENE_08": 346.0, "ENE_09": 442.0, "ENE_10": 582.0, "ENE_11": 416.0, "ENE_12": 412.64, "DIC_01": 0.0, "DIC_02": 0.05, "DIC_03": 0.0, "DIC_04": 0.0, "DIC_05": 0.08, "DIC_06": 0.0, "DIC_07": 0.0, "DIC_08": 0.0, "DIC_09": 0.0, "DIC_10": 0.0, "DIC_11": 0.12, "DIC_12": 0.0, "FIC_01": 0.0, "FIC_02": 1.0, "FIC_03": 0.0, "FIC_04": 0.0, "FIC_05": 1.0, "FIC_06": 0.0, "FIC_07": 0.0, "FIC_08": 0.0, "FIC_09": 0.0, "FIC_10": 0.0, "FIC_11": 1.0, "FIC_12": 0.0, "SEMRED": 0.0, "DESCR": " ", "COD_ID": "a8ed1437bb33590bf9db71c925029ba14fe34ca0cf15ba9bd03c3111af64561c", "__layer": "UCBT_tab", "TEN_CON": null, "POT_INST": null, "DEM_CONT": null }, "geometry": null },
{ "type": "Feature", "properties": { "DIST": 390, "PAC": "32525641737513908L", "RAMAL": "8669547S1", "PN_CON": "451695", "UNI_TR_MT": "14324075", "CTMT": "RBO0108", "UNI_TR_AT": "DRBO-EQ-TR2", "SUB": "DRBO", "CONJ": 12967, "MUN": "3550308", "CEG_GD": " ", "BRR": "R WENCESLAU RALISH 119 JARDIM SERTAOZINHO", "CEP": "04826-240", "CLAS_SUB": "RE1", "CNAE": " ", "TIP_CC": "RES-Tipo04", "FAS_CON": "ABN", "GRU_TEN": "BT", "TEN_FORN": "10", "GRU_TAR": "B1", "SIT_ATIV": "AT", "DAT_CON": "01/05/1975", "CAR_INST": 210.0, "LIV": 0.0, "ARE_LOC": "UB", "TIP_SIST": "RD_INTERLIG", "ENE_01": 156.6, "ENE_02": 324.0, "ENE_03": 331.0, "ENE_04": 330.0, "ENE_05": 334.0, "ENE_06": 70.0, "ENE_07": 261.0, "ENE_08": 290.0, "ENE_09": 295.0, "ENE_10": 258.0, "ENE_11": 254.0, "ENE_12": 288.36, "DIC_01": 0.0, "DIC_02": 0.05, "DIC_03": 0.0, "DIC_04": 0.0, "DIC_05": 0.08, "DIC_06": 0.0, "DIC_07": 0.0, "DIC_08": 0.0, "DIC_09": 0.0, "DIC_10": 0.0, "DIC_11": 0.12, "DIC_12": 0.0, "FIC_01": 0.0, "FIC_02": 1.0, "FIC_03": 0.0, "FIC_04": 0.0, "FIC_05": 1.0, "FIC_06": 0.0, "FIC_07": 0.0, "FIC_08": 0.0, "FIC_09": 0.0, "FIC_10": 0.0, "FIC_11": 1.0, "FIC_12": 0.0, "SEMRED": 0.0, "DESCR": " ", "COD_ID": "e781a0e6caad49b9625977b9190deb278f6d6d60046ba6aa144689fef9eafa3a", "__layer": "UCBT_tab", "TEN_CON": null, "POT_INST": null, "DEM_CONT": null }, "geometry": null },
{ "type": "Feature", "properties": { "DIST": 390, "PAC": "32523752737517263L", "RAMAL": "8668193S1", "PN_CON": "451163", "UNI_TR_MT": "14324075", "CTMT": "RBO0108", "UNI_TR_AT": "DRBO-EQ-TR2", "SUB": "DRBO", "CONJ": 12967, "MUN": "3550308", "CEG_GD": " ", "BRR": "R WENCESLAU RALISH 135 JARDIM SERTAOZINHO", "CEP": "04826-240", "CLAS_SUB": "RE1", "CNAE": " ", "TIP_CC": "RES-Tipo05", "FAS_CON": "ABN", "GRU_TEN": "BT", "TEN_FORN": "10", "GRU_TAR": "B1", "SIT_ATIV": "AT", "DAT_CON": "01/12/1982", "CAR_INST": 11.4, "LIV": 0.0, "ARE_LOC": "UB", "TIP_SIST": "RD_INTERLIG", "ENE_01": 424.28, "ENE_02": 678.0, "ENE_03": 753.0, "ENE_04": 363.0, "ENE_05": 686.0, "ENE_06": 860.0, "ENE_07": 803.0, "ENE_08": 754.0, "ENE_09": 725.0, "ENE_10": 801.0, "ENE_11": 728.0, "ENE_12": 636.92, "DIC_01": 0.0, "DIC_02": 0.05, "DIC_03": 0.0, "DIC_04": 0.0, "DIC_05": 0.08, "DIC_06": 0.0, "DIC_07": 0.0, "DIC_08": 0.0, "DIC_09": 0.0, "DIC_10": 0.0, "DIC_11": 0.12, "DIC_12": 0.0, "FIC_01": 0.0, "FIC_02": 1.0, "FIC_03": 0.0, "FIC_04": 0.0, "FIC_05": 1.0, "FIC_06": 0.0, "FIC_07": 0.0, "FIC_08": 0.0, "FIC_09": 0.0, "FIC_10": 0.0, "FIC_11": 1.0, "FIC_12": 0.0, "SEMRED": 0.0, "DESCR": " ", "COD_ID": "5e3eacb67da39d1fc46cffe06d3e4df6c4f75225576470dfed5d537e91a5a9fe", "__layer": "UCBT_tab", "TEN_CON": null, "POT_INST": null, "DEM_CONT": null }, "geometry": null },
{ "type": "Feature", "properties": { "DIST": 390, "PAC": "32524705737517847L", "RAMAL": "8668192S1", "PN_CON": "451163", "UNI_TR_MT": "14324075", "CTMT": "RBO0108", "UNI_TR_AT": "DRBO-EQ-TR2", "SUB": "DRBO", "CONJ": 12967, "MUN": "3550308", "CEG_GD": "GD.SP.000.694.884", "BRR": "R WENCESLAU RALISH 132 JARDIM SERTAOZINHO", "CEP": "04826-240", "CLAS_SUB": "RE1", "CNAE": " ", "TIP_CC": "RES-Tipo05", "FAS_CON": "ABN", "GRU_TEN": "BT", "TEN_FORN": "10", "GRU_TAR": "B1", "SIT_ATIV": "AT", "DAT_CON": "01/10/1984", "CAR_INST": 8.8, "LIV": 0.0, "ARE_LOC": "UB", "TIP_SIST": "RD_INTERLIG", "ENE_01": 170.61, "ENE_02": 381.0, "ENE_03": 441.0, "ENE_04": 406.0, "ENE_05": 449.0, "ENE_06": 492.0, "ENE_07": 463.0, "ENE_08": 561.0, "ENE_09": 499.0, "ENE_10": 429.0, "ENE_11": 413.0, "ENE_12": 380.6, "DIC_01": 0.0, "DIC_02": 0.05, "DIC_03": 0.0, "DIC_04": 0.0, "DIC_05": 0.08, "DIC_06": 0.0, "DIC_07": 0.0, "DIC_08": 0.0, "DIC_09": 0.0, "DIC_10": 0.0, "DIC_11": 0.12, "DIC_12": 0.0, "FIC_01": 0.0, "FIC_02": 1.0, "FIC_03": 0.0, "FIC_04": 0.0, "FIC_05": 1.0, "FIC_06": 0.0, "FIC_07": 0.0, "FIC_08": 0.0, "FIC_09": 0.0, "FIC_10": 0.0, "FIC_11": 1.0, "FIC_12": 0.0, "SEMRED": 0.0, "DESCR": " ", "COD_ID": "b4f3efd5d30672c7ea261cffad4be425136b0c094c98c287a9416ffb1bf3ed0a", "__layer": "UCBT_tab", "TEN_CON": null, "POT_INST": null, "DEM_CONT": null }, "geometry": null },
{ "type": "Feature", "properties": { "DIST": 390, "PAC": "32524270737518632L", "RAMAL": "8668194S1", "PN_CON": "451163", "UNI_TR_MT": "14324075", "CTMT": "RBO0108", "UNI_TR_AT": "DRBO-EQ-TR2", "SUB": "DRBO", "CONJ": 12967, "MUN": "3550308", "CEG_GD": " ", "BRR": "R WENCESLAU RALISH 178 JARDIM SERTAOZINHO", "CEP": "04826-240", "CLAS_SUB": "RE1", "CNAE": " ", "TIP_CC": "RES-Tipo04", "FAS_CON": "ABN", "GRU_TEN": "BT", "TEN_FORN": "10", "GRU_TAR": "B1", "SIT_ATIV": "AT", "DAT_CON": "01/09/1978", "CAR_INST": 11.5, "LIV": 0.0, "ARE_LOC": "UB", "TIP_SIST": "RD_INTERLIG", "ENE_01": 117.57, "ENE_02": 299.0, "ENE_03": 303.0, "ENE_04": 304.0, "ENE_05": 304.0, "ENE_06": 280.0, "ENE_07": 303.0, "ENE_08": 275.0, "ENE_09": 306.0, "ENE_10": 289.0, "ENE_11": 300.0, "ENE_12": 250.49, "DIC_01": 0.0, "DIC_02": 0.05, "DIC_03": 0.0, "DIC_04": 0.0, "DIC_05": 0.08, "DIC_06": 0.0, "DIC_07": 0.0, "DIC_08": 0.0, "DIC_09": 0.0, "DIC_10": 0.0, "DIC_11": 0.12, "DIC_12": 0.0, "FIC_01": 0.0, "FIC_02": 1.0, "FIC_03": 0.0, "FIC_04": 0.0, "FIC_05": 1.0, "FIC_06": 0.0, "FIC_07": 0.0, "FIC_08": 0.0, "FIC_09": 0.0, "FIC_10": 0.0, "FIC_11": 1.0, "FIC_12": 0.0, "SEMRED": 0.0, "DESCR": " ", "COD_ID": "73544c9fba8dff3c50b9f1a489657754c495577617c3a24605069c866bd988ae", "__layer": "UCBT_tab", "TEN_CON": null, "POT_INST": null, "DEM_CONT": null }, "geometry": null },
{ "type": "Feature", "properties": { "DIST": 390, "PAC": "32520711737510980L", "RAMAL": "8664225S1", "PN_CON": "450210", "UNI_TR_MT": "14323776", "CTMT": "RBO0108", "UNI_TR_AT": "DRBO-EQ-TR2", "SUB": "DRBO", "CONJ": 12967, "MUN": "3550308", "CEG_GD": " ", "BRR": "R WENCESLAU RALISH 385 JARDIM SERTAOZINHO", "CEP": "04826-240", "CLAS_SUB": "RE1", "CNAE": " ", "TIP_CC": "RES-Tipo02", "FAS_CON": "ABN", "GRU_TEN": "BT", "TEN_FORN": "10", "GRU_TAR": "B1", "SIT_ATIV": "AT", "DAT_CON": "01/07/1984", "CAR_INST": 5.9, "LIV": 0.0, "ARE_LOC": "UB", "TIP_SIST": "RD_INTERLIG", "ENE_01": 272.18, "ENE_02": 235.0, "ENE_03": 279.0, "ENE_04": 191.0, "ENE_05": 288.0, "ENE_06": 233.0, "ENE_07": 257.0, "ENE_08": 227.0, "ENE_09": 199.0, "ENE_10": 211.0, "ENE_11": 321.0, "ENE_12": 329.14, "DIC_01": 0.0, "DIC_02": 0.05, "DIC_03": 22.19, "DIC_04": 1.16, "DIC_05": 0.08, "DIC_06": 0.0, "DIC_07": 0.0, "DIC_08": 0.0, "DIC_09": 0.0, "DIC_10": 0.0, "DIC_11": 0.12, "DIC_12": 0.0, "FIC_01": 0.0, "FIC_02": 1.0, "FIC_03": 2.0, "FIC_04": 1.0, "FIC_05": 1.0, "FIC_06": 0.0, "FIC_07": 0.0, "FIC_08": 0.0, "FIC_09": 0.0, "FIC_10": 0.0, "FIC_11": 1.0, "FIC_12": 0.0, "SEMRED": 0.0, "DESCR": " ", "COD_ID": "cf5df493fe61d6ccb4aa62f8e66fd43f4ba2cef175ed4025761c8459f499d862", "__layer": "UCBT_tab", "TEN_CON": null, "POT_INST": null, "DEM_CONT": null }, "geometry": null },
{ "type": "Feature", "properties": { "DIST": 390, "PAC": "32517411737514040L", "RAMAL": "8664227S1", "PN_CON": "449648", "UNI_TR_MT": "14323776", "CTMT": "RBO0108", "UNI_TR_AT": "DRBO-EQ-TR2", "SUB": "DRBO", "CONJ": 12967, "MUN": "3550308", "CEG_GD": " ", "BRR": "R WENCESLAU RALISH 361 JARDIM SERTAOZINHO", "CEP": "04826-240", "CLAS_SUB": "RE1", "CNAE": " ", "TIP_CC": "RES-Tipo05", "FAS_CON": "ABN", "GRU_TEN": "BT", "TEN_FORN": "10", "GRU_TAR": "B1", "SIT_ATIV": "AT", "DAT_CON": "01/05/1987", "CAR_INST": 3.0, "LIV": 0.0, "ARE_LOC": "UB", "TIP_SIST": "RD_INTERLIG", "ENE_01": 0.0, "ENE_02": 826.0, "ENE_03": 584.0, "ENE_04": 586.0, "ENE_05": 455.0, "ENE_06": 515.0, "ENE_07": 501.0, "ENE_08": 525.0, "ENE_09": 548.0, "ENE_10": 509.0, "ENE_11": 456.0, "ENE_12": 413.61, "DIC_01": 0.0, "DIC_02": 0.05, "DIC_03": 3.85, "DIC_04": 1.16, "DIC_05": 0.08, "DIC_06": 0.0, "DIC_07": 0.0, "DIC_08": 0.0, "DIC_09": 0.0, "DIC_10": 0.0, "DIC_11": 0.12, "DIC_12": 0.0, "FIC_01": 0.0, "FIC_02": 1.0, "FIC_03": 1.0, "FIC_04": 1.0, "FIC_05": 1.0, "FIC_06": 0.0, "FIC_07": 0.0, "FIC_08": 0.0, "FIC_09": 0.0, "FIC_10": 0.0, "FIC_11": 1.0, "FIC_12": 0.0, "SEMRED": 0.0, "DESCR": " ", "COD_ID": "263db216013c590de792a4128646468a7b0159a24151def62717b44c3718eeb7", "__layer": "UCBT_tab", "TEN_CON": null, "POT_INST": null, "DEM_CONT": null }, "geometry": null },
{ "type": "Feature", "properties": { "DIST": 390, "PAC": "32522588737505159L", "RAMAL": "8667417S1", "PN_CON": "450841", "UNI_TR_MT": "14323776", "CTMT": "RBO0108", "UNI_TR_AT": "DRBO-EQ-TR2", "SUB": "DRBO", "CONJ": 12967, "MUN": "3550308", "CEG_GD": " ", "BRR": "R WENCESLAU RALISH 538 JARDIM SERTAOZINHO", "CEP": "04826-240", "CLAS_SUB": "RE1", "CNAE": " ", "TIP_CC": "RES-Tipo04", "FAS_CON": "ABN", "GRU_TEN": "BT", "TEN_FORN": "10", "GRU_TAR": "B1", "SIT_ATIV": "AT", "DAT_CON": "01/03/1978", "CAR_INST": 8.0, "LIV": 0.0, "ARE_LOC": "UB", "TIP_SIST": "RD_INTERLIG", "ENE_01": 108.57, "ENE_02": 238.0, "ENE_03": 236.0, "ENE_04": 255.0, "ENE_05": 238.0, "ENE_06": 273.0, "ENE_07": 302.0, "ENE_08": 263.0, "ENE_09": 231.0, "ENE_10": 289.0, "ENE_11": 280.0, "ENE_12": 231.07, "DIC_01": 0.0, "DIC_02": 0.05, "DIC_03": 3.85, "DIC_04": 1.16, "DIC_05": 0.08, "DIC_06": 19.16, "DIC_07": 0.0, "DIC_08": 0.0, "DIC_09": 0.0, "DIC_10": 0.0, "DIC_11": 0.12, "DIC_12": 0.0, "FIC_01": 0.0, "FIC_02": 1.0, "FIC_03": 1.0, "FIC_04": 1.0, "FIC_05": 1.0, "FIC_06": 2.0, "FIC_07": 0.0, "FIC_08": 0.0, "FIC_09": 0.0, "FIC_10": 0.0, "FIC_11": 1.0, "FIC_12": 0.0, "SEMRED": 0.0, "DESCR": " ", "COD_ID": "6e6c765aff92bdf841e96c9139d0473c639bc0c0c675e7a08095bcce2d810458", "__layer": "UCBT_tab", "TEN_CON": null, "POT_INST": null, "DEM_CONT": null }, "geometry": null },
{ "type": "Feature", "properties": { "DIST": 390, "PAC": "32531363737506081L", "RAMAL": "8673493S1", "PN_CON": "363594611", "UNI_TR_MT": "14324075", "CTMT": "RBO0108", "UNI_TR_AT": "DRBO-EQ-TR2", "SUB": "DRBO", "CONJ": 12967, "MUN": "3550308", "CEG_GD": " ", "BRR": "R WENCESLAU RALISH 28 JARDIM SERTAOZINHO", "CEP": "04826-240", "CLAS_SUB": "RE1", "CNAE": " ", "TIP_CC": "RES-Tipo05", "FAS_CON": "ABN", "GRU_TEN": "BT", "TEN_FORN": "10", "GRU_TAR": "B1", "SIT_ATIV": "AT", "DAT_CON": "13/02/1992", "CAR_INST": 5.0, "LIV": 0.0, "ARE_LOC": "UB", "TIP_SIST": "RD_INTERLIG", "ENE_01": 242.16, "ENE_02": 399.0, "ENE_03": 326.0, "ENE_04": 404.0, "ENE_05": 371.0, "ENE_06": 381.0, "ENE_07": 392.0, "ENE_08": 390.0, "ENE_09": 390.0, "ENE_10": 380.0, "ENE_11": 356.0, "ENE_12": 245.64, "DIC_01": 0.0, "DIC_02": 0.05, "DIC_03": 0.0, "DIC_04": 0.0, "DIC_05": 0.08, "DIC_06": 0.0, "DIC_07": 0.0, "DIC_08": 0.0, "DIC_09": 0.0, "DIC_10": 0.0, "DIC_11": 0.12, "DIC_12": 0.0, "FIC_01": 0.0, "FIC_02": 1.0, "FIC_03": 0.0, "FIC_04": 0.0, "FIC_05": 1.0, "FIC_06": 0.0, "FIC_07": 0.0, "FIC_08": 0.0, "FIC_09": 0.0, "FIC_10": 0.0, "FIC_11": 1.0, "FIC_12": 0.0, "SEMRED": 0.0, "DESCR": " ", "COD_ID": "a8a40b84e9b57b4de2f359a0cc8a9d5d20610ed76d27f9b0850a1707874bb366", "__layer": "UCBT_tab", "TEN_CON": null, "POT_INST": null, "DEM_CONT": null }, "geometry": null },
{ "type": "Feature", "properties": { "DIST": 390, "PAC": "32515473737524385L", "RAMAL": "8661026S1", "PN_CON": "448451", "UNI_TR_MT": "14323776", "CTMT": "RBO0108", "UNI_TR_AT": "DRBO-EQ-TR2", "SUB": "DRBO", "CONJ": 12967, "MUN": "3550308", "CEG_GD": " ", "BRR": "R WENCESLAU RALISH 326 JARDIM SERTAOZINHO", "CEP": "04826-240", "CLAS_SUB": "RE1", "CNAE": " ", "TIP_CC": "RES-Tipo04", "FAS_CON": "ABN", "GRU_TEN": "BT", "TEN_FORN": "10", "GRU_TAR": "B1", "SIT_ATIV": "AT", "DAT_CON": "19/10/2004", "CAR_INST": 8.1, "LIV": 0.0, "ARE_LOC": "UB", "TIP_SIST": "RD_INTERLIG", "ENE_01": 171.11, "ENE_02": 289.0, "ENE_03": 304.0, "ENE_04": 330.0, "ENE_05": 347.0, "ENE_06": 365.0, "ENE_07": 398.0, "ENE_08": 422.0, "ENE_09": 392.0, "ENE_10": 486.0, "ENE_11": 363.0, "ENE_12": 300.98, "DIC_01": 0.0, "DIC_02": 0.05, "DIC_03": 3.85, "DIC_04": 1.16, "DIC_05": 0.08, "DIC_06": 0.0, "DIC_07": 0.0, "DIC_08": 0.0, "DIC_09": 0.0, "DIC_10": 0.0, "DIC_11": 0.12, "DIC_12": 0.0, "FIC_01": 0.0, "FIC_02": 1.0, "FIC_03": 1.0, "FIC_04": 1.0, "FIC_05": 1.0, "FIC_06": 0.0, "FIC_07": 0.0, "FIC_08": 0.0, "FIC_09": 0.0, "FIC_10": 0.0, "FIC_11": 1.0, "FIC_12": 0.0, "SEMRED": 0.0, "DESCR": " ", "COD_ID": "856a19146a47f52cccc2add13b08413ec971e447673cf4beb0bf087f9001979d", "__layer": "UCBT_tab", "TEN_CON": null, "POT_INST": null, "DEM_CONT": null }, "geometry": null },
{ "type": "Feature", "properties": { "DIST": 390, "PAC": "32523449737517810L", "RAMAL": "8668190S1", "PN_CON": "451163", "UNI_TR_MT": "14324075", "CTMT": "RBO0108", "UNI_TR_AT": "DRBO-EQ-TR2", "SUB": "DRBO", "CONJ": 12967, "MUN": "3550308", "CEG_GD": " ", "BRR": "R WENCESLAU RALISH 161 JARDIM SERTAOZINHO", "CEP": "04826-240", "CLAS_SUB": "RE1", "CNAE": " ", "TIP_CC": "RES-Tipo04", "FAS_CON": "ABN", "GRU_TEN": "BT", "TEN_FORN": "10", "GRU_TAR": "B1", "SIT_ATIV": "AT", "DAT_CON": "12/02/2005", "CAR_INST": 6.6, "LIV": 0.0, "ARE_LOC": "UB", "TIP_SIST": "RD_INTERLIG", "ENE_01": 181.12, "ENE_02": 358.0, "ENE_03": 366.0, "ENE_04": 402.0, "ENE_05": 313.0, "ENE_06": 173.0, "ENE_07": 284.0, "ENE_08": 281.0, "ENE_09": 272.0, "ENE_10": 326.0, "ENE_11": 289.0, "ENE_12": 275.74, "DIC_01": 0.0, "DIC_02": 0.05, "DIC_03": 0.0, "DIC_04": 0.0, "DIC_05": 0.08, "DIC_06": 0.0, "DIC_07": 0.0, "DIC_08": 0.0, "DIC_09": 0.0, "DIC_10": 0.0, "DIC_11": 0.12, "DIC_12": 0.0, "FIC_01": 0.0, "FIC_02": 1.0, "FIC_03": 0.0, "FIC_04": 0.0, "FIC_05": 1.0, "FIC_06": 0.0, "FIC_07": 0.0, "FIC_08": 0.0, "FIC_09": 0.0, "FIC_10": 0.0, "FIC_11": 1.0, "FIC_12": 0.0, "SEMRED": 0.0, "DESCR": " ", "COD_ID": "f4f2e106e6b156f2931c00798aa8217804a01741205e69ca04742dd0e3f8d2b6", "__layer": "UCBT_tab", "TEN_CON": null, "POT_INST": null, "DEM_CONT": null }, "geometry": null },
{ "type": "Feature", "properties": { "DIST": 390, "PAC": "32523649737517633L", "RAMAL": "102316718S1", "PN_CON": "451163", "UNI_TR_MT": "14324075", "CTMT": "RBO0108", "UNI_TR_AT": "DRBO-EQ-TR2", "SUB": "DRBO", "CONJ": 12967, "MUN": "3550308", "CEG_GD": " ", "BRR": "R WENCESLAU RALISH 215 JARDIM SERTAOZINHO", "CEP": "04826-240", "CLAS_SUB": "CO1", "CNAE": "8513-9/00", "TIP_CC": "COM-Tipo05", "FAS_CON": "ABN", "GRU_TEN": "BT", "TEN_FORN": "10", "GRU_TAR": "B3", "SIT_ATIV": "AT", "DAT_CON": "24/10/2007", "CAR_INST": 59.3, "LIV": 0.0, "ARE_LOC": "UB", "TIP_SIST": "RD_INTERLIG", "ENE_01": 0.0, "ENE_02": 5600.0, "ENE_03": 3943.894, "ENE_04": 3673.6, "ENE_05": 1931.6, "ENE_06": 5426.0, "ENE_07": 3095.23, "ENE_08": 2201.37, "ENE_09": 3781.6, "ENE_10": 4055.2, "ENE_11": 2281.65, "ENE_12": 3145.79, "DIC_01": 0.0, "DIC_02": 0.05, "DIC_03": 0.0, "DIC_04": 0.0, "DIC_05": 0.08, "DIC_06": 0.0, "DIC_07": 0.0, "DIC_08": 0.0, "DIC_09": 0.0, "DIC_10": 0.0, "DIC_11": 0.12, "DIC_12": 0.0, "FIC_01": 0.0, "FIC_02": 1.0, "FIC_03": 0.0, "FIC_04": 0.0, "FIC_05": 1.0, "FIC_06": 0.0, "FIC_07": 0.0, "FIC_08": 0.0, "FIC_09": 0.0, "FIC_10": 0.0, "FIC_11": 1.0, "FIC_12": 0.0, "SEMRED": 0.0, "DESCR": " ", "COD_ID": "9fcc9773474f0d920359979b910979a93221fa7f44922af40e268fa6e7436d37", "__layer": "UCBT_tab", "TEN_CON": null, "POT_INST": null, "DEM_CONT": null }, "geometry": null },
{ "type": "Feature", "properties": { "DIST": 390, "PAC": "32524705737517847L", "RAMAL": "8668192S1", "PN_CON": "451163", "UNI_TR_MT": "14324075", "CTMT": "RBO0108", "UNI_TR_AT": "DRBO-EQ-TR2", "SUB": "DRBO", "CONJ": 12967, "MUN": "3550308", "CEG_GD": "GD.SP.000.694.825", "BRR": "R WENCESLAU RALISH 132 JARDIM SERTAOZINHO", "CEP": "04826-240", "CLAS_SUB": "RE1", "CNAE": " ", "TIP_CC": "RES-Tipo04", "FAS_CON": "ABN", "GRU_TEN": "BT", "TEN_FORN": "10", "GRU_TAR": "B1", "SIT_ATIV": "AT", "DAT_CON": "16/01/2012", "CAR_INST": 7.6, "LIV": 0.0, "ARE_LOC": "UB", "TIP_SIST": "RD_INTERLIG", "ENE_01": 116.57, "ENE_02": 222.0, "ENE_03": 355.0, "ENE_04": 358.0, "ENE_05": 295.0, "ENE_06": 296.0, "ENE_07": 289.0, "ENE_08": 252.0, "ENE_09": 353.0, "ENE_10": 313.0, "ENE_11": 271.0, "ENE_12": 318.46, "DIC_01": 0.0, "DIC_02": 0.05, "DIC_03": 0.0, "DIC_04": 0.0, "DIC_05": 0.08, "DIC_06": 0.0, "DIC_07": 0.0, "DIC_08": 0.0, "DIC_09": 0.0, "DIC_10": 0.0, "DIC_11": 0.12, "DIC_12": 0.0, "FIC_01": 0.0, "FIC_02": 1.0, "FIC_03": 0.0, "FIC_04": 0.0, "FIC_05": 1.0, "FIC_06": 0.0, "FIC_07": 0.0, "FIC_08": 0.0, "FIC_09": 0.0, "FIC_10": 0.0, "FIC_11": 1.0, "FIC_12": 0.0, "SEMRED": 0.0, "DESCR": " ", "COD_ID": "e1281a7c00c61fc062341f85fb31f65d4aded603791a8ef77f2719e674364283", "__layer": "UCBT_tab", "TEN_CON": null, "POT_INST": null, "DEM_CONT": null }, "geometry": null },
{ "type": "Feature", "properties": { "DIST": 390, "PAC": "32518845737513903L", "RAMAL": "438716763S1", "PN_CON": "449648", "UNI_TR_MT": "14323776", "CTMT": "RBO0108", "UNI_TR_AT": "DRBO-EQ-TR2", "SUB": "DRBO", "CONJ": 12967, "MUN": "3550308", "CEG_GD": " ", "BRR": "R WENCESLAU RALISH 36 JARDIM SERTAOZINHO", "CEP": "04826-240", "CLAS_SUB": "RE1", "CNAE": " ", "TIP_CC": "RES-Tipo03", "FAS_CON": "ABN", "GRU_TEN": "BT", "TEN_FORN": "10", "GRU_TAR": "B1", "SIT_ATIV": "AT", "DAT_CON": "12/06/2012", "CAR_INST": 14.6, "LIV": 0.0, "ARE_LOC": "UB", "TIP_SIST": "RD_INTERLIG", "ENE_01": 59.54, "ENE_02": 123.0, "ENE_03": 138.0, "ENE_04": 171.0, "ENE_05": 182.0, "ENE_06": 176.0, "ENE_07": 154.0, "ENE_08": 141.0, "ENE_09": 130.0, "ENE_10": 150.0, "ENE_11": 139.0, "ENE_12": 110.68, "DIC_01": 0.0, "DIC_02": 0.05, "DIC_03": 3.85, "DIC_04": 1.16, "DIC_05": 0.08, "DIC_06": 0.0, "DIC_07": 0.0, "DIC_08": 0.0, "DIC_09": 0.0, "DIC_10": 0.0, "DIC_11": 0.12, "DIC_12": 0.0, "FIC_01": 0.0, "FIC_02": 1.0, "FIC_03": 1.0, "FIC_04": 1.0, "FIC_05": 1.0, "FIC_06": 0.0, "FIC_07": 0.0, "FIC_08": 0.0, "FIC_09": 0.0, "FIC_10": 0.0, "FIC_11": 1.0, "FIC_12": 0.0, "SEMRED": 0.0, "DESCR": " ", "COD_ID": "be3d5b166a0217747eb775cbd526d65b60f854acfb2a888514afc855b707962e", "__layer": "UCBT_tab", "TEN_CON": null, "POT_INST": null, "DEM_CONT": null }, "geometry": null },
{ "type": "Feature", "properties": { "DIST": 390, "PAC": "32516280737516325L", "RAMAL": "8663354S1", "PN_CON": "449315", "UNI_TR_MT": "14323776", "CTMT": "RBO0108", "UNI_TR_AT": "DRBO-EQ-TR2", "SUB": "DRBO", "CONJ": 12967, "MUN": "3550308", "CEG_GD": " ", "BRR": "R WENCESLAU RALISH 364 JARDIM SERTAOZINHO", "CEP": "04826-240", "CLAS_SUB": "RE1", "CNAE": " ", "TIP_CC": "RES-Tipo04", "FAS_CON": "ABN", "GRU_TEN": "BT", "TEN_FORN": "10", "GRU_TAR": "B1", "SIT_ATIV": "AT", "DAT_CON": "13/06/2017", "CAR_INST": 3.1, "LIV": 0.0, "ARE_LOC": "UB", "TIP_SIST": "RD_INTERLIG", "ENE_01": 90.06, "ENE_02": 232.0, "ENE_03": 239.0, "ENE_04": 215.0, "ENE_05": 204.0, "ENE_06": 180.0, "ENE_07": 220.0, "ENE_08": 218.0, "ENE_09": 207.0, "ENE_10": 227.0, "ENE_11": 193.0, "ENE_12": 160.2, "DIC_01": 0.0, "DIC_02": 0.05, "DIC_03": 3.85, "DIC_04": 1.16, "DIC_05": 0.08, "DIC_06": 0.0, "DIC_07": 0.0, "DIC_08": 0.0, "DIC_09": 0.0, "DIC_10": 0.0, "DIC_11": 0.12, "DIC_12": 0.0, "FIC_01": 0.0, "FIC_02": 1.0, "FIC_03": 1.0, "FIC_04": 1.0, "FIC_05": 1.0, "FIC_06": 0.0, "FIC_07": 0.0, "FIC_08": 0.0, "FIC_09": 0.0, "FIC_10": 0.0, "FIC_11": 1.0, "FIC_12": 0.0, "SEMRED": 0.0, "DESCR": " ", "COD_ID": "4ddc2887bd1869b441dcfd332994bf63910a29bb9ede042a90526b07e6f55bff", "__layer": "UCBT_tab", "TEN_CON": null, "POT_INST": null, "DEM_CONT": null }, "geometry": null },
{ "type": "Feature", "properties": { "DIST": 390, "PAC": "32514213737520238L", "RAMAL": "8661446S1", "PN_CON": "448585", "UNI_TR_MT": "14323776", "CTMT": "RBO0108", "UNI_TR_AT": "DRBO-EQ-TR2", "SUB": "DRBO", "CONJ": 12967, "MUN": "3550308", "CEG_GD": " ", "BRR": "R WENCESLAU RALISH 328 JARDIM SERTAOZINHO", "CEP": "04826-240", "CLAS_SUB": "RE1", "CNAE": " ", "TIP_CC": "RES-Tipo05", "FAS_CON": "ABN", "GRU_TEN": "BT", "TEN_FORN": "10", "GRU_TAR": "B1", "SIT_ATIV": "AT", "DAT_CON": "13/06/2018", "CAR_INST": 5.9, "LIV": 0.0, "ARE_LOC": "UB", "TIP_SIST": "RD_INTERLIG", "ENE_01": 324.71, "ENE_02": 302.0, "ENE_03": 721.0, "ENE_04": 446.0, "ENE_05": 405.0, "ENE_06": 483.0, "ENE_07": 444.0, "ENE_08": 490.0, "ENE_09": 522.0, "ENE_10": 607.0, "ENE_11": 437.0, "ENE_12": 416.52, "DIC_01": 0.0, "DIC_02": 0.05, "DIC_03": 3.85, "DIC_04": 11.98, "DIC_05": 0.08, "DIC_06": 0.0, "DIC_07": 0.0, "DIC_08": 0.0, "DIC_09": 0.0, "DIC_10": 0.0, "DIC_11": 0.12, "DIC_12": 0.0, "FIC_01": 0.0, "FIC_02": 1.0, "FIC_03": 1.0, "FIC_04": 2.0, "FIC_05": 1.0, "FIC_06": 0.0, "FIC_07": 0.0, "FIC_08": 0.0, "FIC_09": 0.0, "FIC_10": 0.0, "FIC_11": 1.0, "FIC_12": 0.0, "SEMRED": 0.0, "DESCR": " ", "COD_ID": "0e2a28d6c522833a49d841a771f4c868441d5066b794dfb1cbfcfe6b9d88c86a", "__layer": "UCBT_tab", "TEN_CON": null, "POT_INST": null, "DEM_CONT": null }, "geometry": null },
{ "type": "Feature", "properties": { "DIST": 390, "PAC": "32514886737518608L", "RAMAL": "431970236S1", "PN_CON": "449026", "UNI_TR_MT": "14323776", "CTMT": "RBO0108", "UNI_TR_AT": "DRBO-EQ-TR2", "SUB": "DRBO", "CONJ": 12967, "MUN": "3550308", "CEG_GD": " ", "BRR": "R WENCESLAU RALISH 348 JARDIM SERTAOZINHO", "CEP": "04826-240", "CLAS_SUB": "RE1", "CNAE": " ", "TIP_CC": "RES-Tipo01", "FAS_CON": "ABN", "GRU_TEN": "BT", "TEN_FORN": "10", "GRU_TAR": "B1", "SIT_ATIV": "AT", "DAT_CON": "23/01/2019", "CAR_INST": 15.4, "LIV": 0.0, "ARE_LOC": "UB", "TIP_SIST": "RD_INTERLIG", "ENE_01": 15.01, "ENE_02": 2.0, "ENE_03": 30.0, "ENE_04": 30.0, "ENE_05": 30.0, "ENE_06": 30.0, "ENE_07": 30.0, "ENE_08": 30.0, "ENE_09": 30.0, "ENE_10": 30.0, "ENE_11": 30.0, "ENE_12": 29.12, "DIC_01": 0.0, "DIC_02": 0.05, "DIC_03": 3.85, "DIC_04": 1.16, "DIC_05": 0.08, "DIC_06": 0.0, "DIC_07": 0.0, "DIC_08": 0.0, "DIC_09": 0.0, "DIC_10": 0.0, "DIC_11": 0.12, "DIC_12": 0.0, "FIC_01": 0.0, "FIC_02": 1.0, "FIC_03": 1.0, "FIC_04": 1.0, "FIC_05": 1.0, "FIC_06": 0.0, "FIC_07": 0.0, "FIC_08": 0.0, "FIC_09": 0.0, "FIC_10": 0.0, "FIC_11": 1.0, "FIC_12": 0.0, "SEMRED": 0.0, "DESCR": " ", "COD_ID": "39809930e4a001c93cab9c3c3ce2266c013fbeafb04db94517f4dd846385cce0", "__layer": "UCBT_tab", "TEN_CON": null, "POT_INST": null, "DEM_CONT": null }, "geometry": null },
{ "type": "Feature", "properties": { "DIST": 390, "PAC": "32522994737506576L", "RAMAL": "438718104S1", "PN_CON": "450841", "UNI_TR_MT": "14323776", "CTMT": "RBO0108", "UNI_TR_AT": "DRBO-EQ-TR2", "SUB": "DRBO", "CONJ": 12967, "MUN": "3550308", "CEG_GD": " ", "BRR": "R WENCESLAU RALISH 486 JARDIM SERTAOZINHO", "CEP": "04826-240", "CLAS_SUB": "RE1", "CNAE": " ", "TIP_CC": "RES-Tipo05", "FAS_CON": "ABN", "GRU_TEN": "BT", "TEN_FORN": "10", "GRU_TAR": "B1", "SIT_ATIV": "AT", "DAT_CON": "01/09/1979", "CAR_INST": 7.3, "LIV": 0.0, "ARE_LOC": "UB", "TIP_SIST": "RD_INTERLIG", "ENE_01": 274.18, "ENE_02": 300.0, "ENE_03": 396.0, "ENE_04": 258.0, "ENE_05": 312.0, "ENE_06": 201.0, "ENE_07": 284.0, "ENE_08": 266.0, "ENE_09": 238.0, "ENE_10": 326.0, "ENE_11": 314.0, "ENE_12": 315.54, "DIC_01": 0.0, "DIC_02": 0.05, "DIC_03": 3.85, "DIC_04": 1.16, "DIC_05": 0.08, "DIC_06": 0.0, "DIC_07": 0.0, "DIC_08": 0.0, "DIC_09": 0.0, "DIC_10": 0.0, "DIC_11": 0.12, "DIC_12": 0.0, "FIC_01": 0.0, "FIC_02": 1.0, "FIC_03": 1.0, "FIC_04": 1.0, "FIC_05": 1.0, "FIC_06": 0.0, "FIC_07": 0.0, "FIC_08": 0.0, "FIC_09": 0.0, "FIC_10": 0.0, "FIC_11": 1.0, "FIC_12": 0.0, "SEMRED": 0.0, "DESCR": " ", "COD_ID": "fda3c5b41dd69a2cda258feea643042e6e5aa5779476be7ad25bf147e91ab91c", "__layer": "UCBT_tab", "TEN_CON": null, "POT_INST": null, "DEM_CONT": null }, "geometry": null },
{ "type": "Feature", "properties": { "DIST": 390, "PAC": "32531645737505692L", "RAMAL": "8673492S1", "PN_CON": "363594611", "UNI_TR_MT": "14324075", "CTMT": "RBO0108", "UNI_TR_AT": "DRBO-EQ-TR2", "SUB": "DRBO", "CONJ": 12967, "MUN": "3550308", "CEG_GD": " ", "BRR": "R WENCESLAU RALISH 16 JARDIM SERTAOZINHO", "CEP": "04826-240", "CLAS_SUB": "RE1", "CNAE": " ", "TIP_CC": "RES-Tipo01", "FAS_CON": "ABN", "GRU_TEN": "BT", "TEN_FORN": "10", "GRU_TAR": "B1", "SIT_ATIV": "AT", "DAT_CON": "01/12/1969", "CAR_INST": 1.8, "LIV": 0.0, "ARE_LOC": "UB", "TIP_SIST": "RD_INTERLIG", "ENE_01": 0.0, "ENE_02": 60.0, "ENE_03": 30.0, "ENE_04": 30.0, "ENE_05": 30.0, "ENE_06": 30.0, "ENE_07": 30.0, "ENE_08": 20.0, "ENE_09": 10.0, "ENE_10": 30.0, "ENE_11": 30.0, "ENE_12": 9.7, "DIC_01": 0.0, "DIC_02": 0.05, "DIC_03": 0.0, "DIC_04": 0.0, "DIC_05": 0.08, "DIC_06": 0.0, "DIC_07": 0.0, "DIC_08": 0.0, "DIC_09": 0.0, "DIC_10": 0.0, "DIC_11": 0.12, "DIC_12": 0.0, "FIC_01": 0.0, "FIC_02": 1.0, "FIC_03": 0.0, "FIC_04": 0.0, "FIC_05": 1.0, "FIC_06": 0.0, "FIC_07": 0.0, "FIC_08": 0.0, "FIC_09": 0.0, "FIC_10": 0.0, "FIC_11": 1.0, "FIC_12": 0.0, "SEMRED": 0.0, "DESCR": " ", "COD_ID": "8196b803592f68e4a3103f90cf03b1ff7f6ae0e991f741c78fad3ba9123ab435", "__layer": "UCBT_tab", "TEN_CON": null, "POT_INST": null, "DEM_CONT": null }, "geometry": null },
{ "type": "Feature", "properties": { "DIST": 390, "PAC": "32526702737514294L", "RAMAL": "8669546S1", "PN_CON": "451695", "UNI_TR_MT": "14324075", "CTMT": "RBO0108", "UNI_TR_AT": "DRBO-EQ-TR2", "SUB": "DRBO", "CONJ": 12967, "MUN": "3550308", "CEG_GD": " ", "BRR": "R WENCESLAU RALISH 116 JARDIM SERTAOZINHO", "CEP": "04826-240", "CLAS_SUB": "RE1", "CNAE": " ", "TIP_CC": "RES-Tipo05", "FAS_CON": "ABN", "GRU_TEN": "BT", "TEN_FORN": "10", "GRU_TAR": "B1", "SIT_ATIV": "AT", "DAT_CON": "01/05/1977", "CAR_INST": 0.3, "LIV": 0.0, "ARE_LOC": "UB", "TIP_SIST": "RD_INTERLIG", "ENE_01": 236.15, "ENE_02": 403.0, "ENE_03": 395.0, "ENE_04": 386.0, "ENE_05": 396.0, "ENE_06": 359.0, "ENE_07": 389.0, "ENE_08": 394.0, "ENE_09": 379.0, "ENE_10": 433.0, "ENE_11": 387.0, "ENE_12": 417.49, "DIC_01": 0.0, "DIC_02": 0.05, "DIC_03": 0.0, "DIC_04": 0.0, "DIC_05": 0.08, "DIC_06": 0.0, "DIC_07": 0.0, "DIC_08": 0.0, "DIC_09": 0.0, "DIC_10": 0.0, "DIC_11": 0.12, "DIC_12": 0.0, "FIC_01": 0.0, "FIC_02": 1.0, "FIC_03": 0.0, "FIC_04": 0.0, "FIC_05": 1.0, "FIC_06": 0.0, "FIC_07": 0.0, "FIC_08": 0.0, "FIC_09": 0.0, "FIC_10": 0.0, "FIC_11": 1.0, "FIC_12": 0.0, "SEMRED": 0.0, "DESCR": " ", "COD_ID": "ba6dc215c47084140700a34685db0ff1df0d0d8391092d2b1f612d1b2c5a567a", "__layer": "UCBT_tab", "TEN_CON": null, "POT_INST": null, "DEM_CONT": null }, "geometry": null },
{ "type": "Feature", "properties": { "DIST": 390, "PAC": "32524384737518425L", "RAMAL": "8668196S1", "PN_CON": "451163", "UNI_TR_MT": "14324075", "CTMT": "RBO0108", "UNI_TR_AT": "DRBO-EQ-TR2", "SUB": "DRBO", "CONJ": 12967, "MUN": "3550308", "CEG_GD": "GD.SP.000.618.608", "BRR": "R WENCESLAU RALISH 164 JARDIM SERTAOZINHO", "CEP": "04826-240", "CLAS_SUB": "RE1", "CNAE": " ", "TIP_CC": "RES-Tipo04", "FAS_CON": "ABN", "GRU_TEN": "BT", "TEN_FORN": "10", "GRU_TAR": "B1", "SIT_ATIV": "AT", "DAT_CON": "01/09/1985", "CAR_INST": 6.3, "LIV": 0.0, "ARE_LOC": "UB", "TIP_SIST": "RD_INTERLIG", "ENE_01": 117.57, "ENE_02": 307.0, "ENE_03": 388.0, "ENE_04": 306.0, "ENE_05": 375.0, "ENE_06": 308.0, "ENE_07": 241.0, "ENE_08": 278.0, "ENE_09": 316.0, "ENE_10": 324.0, "ENE_11": 281.0, "ENE_12": 274.77, "DIC_01": 0.0, "DIC_02": 0.05, "DIC_03": 0.0, "DIC_04": 0.0, "DIC_05": 0.08, "DIC_06": 0.0, "DIC_07": 0.0, "DIC_08": 0.0, "DIC_09": 0.0, "DIC_10": 0.0, "DIC_11": 0.12, "DIC_12": 0.0, "FIC_01": 0.0, "FIC_02": 1.0, "FIC_03": 0.0, "FIC_04": 0.0, "FIC_05": 1.0, "FIC_06": 0.0, "FIC_07": 0.0, "FIC_08": 0.0, "FIC_09": 0.0, "FIC_10": 0.0, "FIC_11": 1.0, "FIC_12": 0.0, "SEMRED": 0.0, "DESCR": " ", "COD_ID": "0cef35394f64b48f01cd72092d80c60b48c9d60d80c7f7a9cbad9626542b7cee", "__layer": "UCBT_tab", "TEN_CON": null, "POT_INST": null, "DEM_CONT": null }, "geometry": null },
{ "type": "Feature", "properties": { "DIST": 390, "PAC": "32518719737514177L", "RAMAL": "438716730S1", "PN_CON": "449648", "UNI_TR_MT": "14323776", "CTMT": "RBO0108", "UNI_TR_AT": "DRBO-EQ-TR2", "SUB": "DRBO", "CONJ": 12967, "MUN": "3550308", "CEG_GD": " ", "BRR": "R WENCESLAU RALISH 33 JARDIM SERTAOZINHO", "CEP": "04826-240", "CLAS_SUB": "RE1", "CNAE": " ", "TIP_CC": "RES-Tipo05", "FAS_CON": "ABN", "GRU_TEN": "BT", "TEN_FORN": "10", "GRU_TAR": "B1", "SIT_ATIV": "AT", "DAT_CON": "18/05/1992", "CAR_INST": 5.0, "LIV": 0.0, "ARE_LOC": "UB", "TIP_SIST": "RD_INTERLIG", "ENE_01": 238.16, "ENE_02": 0.0, "ENE_03": 869.0, "ENE_04": 0.0, "ENE_05": 406.0, "ENE_06": 335.0, "ENE_07": 360.0, "ENE_08": 194.0, "ENE_09": 277.0, "ENE_10": 30.0, "ENE_11": 30.0, "ENE_12": 29.12, "DIC_01": 0.0, "DIC_02": 0.0, "DIC_03": 3.85, "DIC_04": 0.0, "DIC_05": 0.08, "DIC_06": 0.0, "DIC_07": 0.0, "DIC_08": 0.0, "DIC_09": 0.0, "DIC_10": 0.0, "DIC_11": 0.12, "DIC_12": 0.0, "FIC_01": 0.0, "FIC_02": 0.0, "FIC_03": 1.0, "FIC_04": 0.0, "FIC_05": 1.0, "FIC_06": 0.0, "FIC_07": 0.0, "FIC_08": 0.0, "FIC_09": 0.0, "FIC_10": 0.0, "FIC_11": 1.0, "FIC_12": 0.0, "SEMRED": 0.0, "DESCR": " ", "COD_ID": "119124ed652ebc0e5a71a1018b880a644b34b7caecd399817d91cd990462a583", "__layer": "UCBT_tab", "TEN_CON": null, "POT_INST": null, "DEM_CONT": null }, "geometry": null },
{ "type": "Feature", "properties": { "DIST": 390, "PAC": "32516505737518162L", "RAMAL": "8662612S1", "PN_CON": "449026", "UNI_TR_MT": "14323776", "CTMT": "RBO0108", "UNI_TR_AT": "DRBO-EQ-TR2", "SUB": "DRBO", "CONJ": 12967, "MUN": "3550308", "CEG_GD": " ", "BRR": "R WENCESLAU RALISH 335 JARDIM SERTAOZINHO", "CEP": "04826-240", "CLAS_SUB": "RE2", "CNAE": " ", "TIP_CC": "RES-Tipo02", "FAS_CON": "ABN", "GRU_TEN": "BT", "TEN_FORN": "10", "GRU_TAR": "B1BR", "SIT_ATIV": "AT", "DAT_CON": "27/04/2004", "CAR_INST": 6.0, "LIV": 0.0, "ARE_LOC": "UB", "TIP_SIST": "RD_INTERLIG", "ENE_01": 0.0, "ENE_02": 285.0, "ENE_03": 145.0, "ENE_04": 131.0, "ENE_05": 137.0, "ENE_06": 124.0, "ENE_07": 128.0, "ENE_08": 118.0, "ENE_09": 123.0, "ENE_10": 142.0, "ENE_11": 120.0, "ENE_12": 98.06, "DIC_01": 0.0, "DIC_02": 0.05, "DIC_03": 3.85, "DIC_04": 1.16, "DIC_05": 0.08, "DIC_06": 0.0, "DIC_07": 0.0, "DIC_08": 0.0, "DIC_09": 0.0, "DIC_10": 0.0, "DIC_11": 0.12, "DIC_12": 0.0, "FIC_01": 0.0, "FIC_02": 1.0, "FIC_03": 1.0, "FIC_04": 1.0, "FIC_05": 1.0, "FIC_06": 0.0, "FIC_07": 0.0, "FIC_08": 0.0, "FIC_09": 0.0, "FIC_10": 0.0, "FIC_11": 1.0, "FIC_12": 0.0, "SEMRED": 0.0, "DESCR": " ", "COD_ID": "4f3d776a6d7455a65036d4b7804b143144bb394a814f731ed0c1bbf4894cdacf", "__layer": "UCBT_tab", "TEN_CON": null, "POT_INST": null, "DEM_CONT": null }, "geometry": null },
{ "type": "Feature", "properties": { "DIST": 390, "PAC": "32514213737520238L", "RAMAL": "8661446S1", "PN_CON": "448585", "UNI_TR_MT": "14323776", "CTMT": "RBO0108", "UNI_TR_AT": "DRBO-EQ-TR2", "SUB": "DRBO", "CONJ": 12967, "MUN": "3550308", "CEG_GD": " ", "BRR": "R WENCESLAU RALISH 328 JARDIM SERTAOZINHO", "CEP": "04826-240", "CLAS_SUB": "RE1", "CNAE": " ", "TIP_CC": "RES-Tipo04", "FAS_CON": "ABN", "GRU_TEN": "BT", "TEN_FORN": "10", "GRU_TAR": "B1", "SIT_ATIV": "AT", "DAT_CON": "09/01/2009", "CAR_INST": 5.9, "LIV": 0.0, "ARE_LOC": "UB", "TIP_SIST": "RD_INTERLIG", "ENE_01": 124.08, "ENE_02": 256.0, "ENE_03": 307.0, "ENE_04": 251.0, "ENE_05": 255.0, "ENE_06": 197.0, "ENE_07": 220.0, "ENE_08": 188.0, "ENE_09": 157.0, "ENE_10": 182.0, "ENE_11": 198.0, "ENE_12": 166.99, "DIC_01": 0.0, "DIC_02": 0.05, "DIC_03": 3.85, "DIC_04": 1.16, "DIC_05": 0.08, "DIC_06": 0.0, "DIC_07": 0.0, "DIC_08": 0.0, "DIC_09": 0.0, "DIC_10": 0.0, "DIC_11": 0.12, "DIC_12": 0.0, "FIC_01": 0.0, "FIC_02": 1.0, "FIC_03": 1.0, "FIC_04": 1.0, "FIC_05": 1.0, "FIC_06": 0.0, "FIC_07": 0.0, "FIC_08": 0.0, "FIC_09": 0.0, "FIC_10": 0.0, "FIC_11": 1.0, "FIC_12": 0.0, "SEMRED": 0.0, "DESCR": " ", "COD_ID": "199adee3d178c1df78b9b3b0d4a2c75dd79aa8d8e20dba5da2a926fde3879db1", "__layer": "UCBT_tab", "TEN_CON": null, "POT_INST": null, "DEM_CONT": null }, "geometry": null },
{ "type": "Feature", "properties": { "DIST": 390, "PAC": "32518048737513468L", "RAMAL": "56749290S1", "PN_CON": "449648", "UNI_TR_MT": "14323776", "CTMT": "RBO0108", "UNI_TR_AT": "DRBO-EQ-TR2", "SUB": "DRBO", "CONJ": 12967, "MUN": "3550308", "CEG_GD": " ", "BRR": "R WENCESLAU RALISH 479 JARDIM SERTAOZINHO", "CEP": "04826-240", "CLAS_SUB": "RE1", "CNAE": " ", "TIP_CC": "RES-Tipo04", "FAS_CON": "ABN", "GRU_TEN": "BT", "TEN_FORN": "10", "GRU_TAR": "B1", "SIT_ATIV": "AT", "DAT_CON": "30/06/2014", "CAR_INST": 6.8, "LIV": 0.0, "ARE_LOC": "UB", "TIP_SIST": "RD_INTERLIG", "ENE_01": 225.65, "ENE_02": 375.0, "ENE_03": 409.0, "ENE_04": 384.0, "ENE_05": 342.0, "ENE_06": 307.0, "ENE_07": 397.0, "ENE_08": 764.0, "ENE_09": 752.0, "ENE_10": 692.0, "ENE_11": 664.0, "ENE_12": 609.73, "DIC_01": 0.0, "DIC_02": 0.05, "DIC_03": 3.85, "DIC_04": 1.16, "DIC_05": 0.08, "DIC_06": 0.0, "DIC_07": 0.0, "DIC_08": 0.0, "DIC_09": 0.0, "DIC_10": 0.0, "DIC_11": 0.12, "DIC_12": 0.0, "FIC_01": 0.0, "FIC_02": 1.0, "FIC_03": 1.0, "FIC_04": 1.0, "FIC_05": 1.0, "FIC_06": 0.0, "FIC_07": 0.0, "FIC_08": 0.0, "FIC_09": 0.0, "FIC_10": 0.0, "FIC_11": 1.0, "FIC_12": 0.0, "SEMRED": 0.0, "DESCR": " ", "COD_ID": "100aca5147935dd88fb09fc7befe6b45fbbead42abed49183a3273f82c8a7ca5", "__layer": "UCBT_tab", "TEN_CON": null, "POT_INST": null, "DEM_CONT": null }, "geometry": null },
{ "type": "Feature", "properties": { "DIST": 390, "PAC": "32514806737518762L", "RAMAL": "438722933S1", "PN_CON": "448585", "UNI_TR_MT": "14323776", "CTMT": "RBO0108", "UNI_TR_AT": "DRBO-EQ-TR2", "SUB": "DRBO", "CONJ": 12967, "MUN": "3550308", "CEG_GD": " ", "BRR": "R WENCESLAU RALISH 330 JARDIM SERTAOZINHO", "CEP": "04826-240", "CLAS_SUB": "RE2", "CNAE": " ", "TIP_CC": "RES-Tipo04", "FAS_CON": "ABN", "GRU_TEN": "BT", "TEN_FORN": "10", "GRU_TAR": "B1BR", "SIT_ATIV": "AT", "DAT_CON": "03/09/2014", "CAR_INST": 9.0, "LIV": 0.0, "ARE_LOC": "UB", "TIP_SIST": "RD_INTERLIG", "ENE_01": 219.14, "ENE_02": 397.0, "ENE_03": 428.0, "ENE_04": 378.0, "ENE_05": 396.0, "ENE_06": 367.0, "ENE_07": 387.0, "ENE_08": 376.0, "ENE_09": 366.0, "ENE_10": 437.0, "ENE_11": 375.0, "ENE_12": 366.03, "DIC_01": 0.0, "DIC_02": 0.05, "DIC_03": 3.85, "DIC_04": 1.16, "DIC_05": 0.08, "DIC_06": 0.0, "DIC_07": 0.0, "DIC_08": 0.0, "DIC_09": 0.0, "DIC_10": 0.0, "DIC_11": 0.12, "DIC_12": 0.0, "FIC_01": 0.0, "FIC_02": 1.0, "FIC_03": 1.0, "FIC_04": 1.0, "FIC_05": 1.0, "FIC_06": 0.0, "FIC_07": 0.0, "FIC_08": 0.0, "FIC_09": 0.0, "FIC_10": 0.0, "FIC_11": 1.0, "FIC_12": 0.0, "SEMRED": 0.0, "DESCR": " ", "COD_ID": "822d5acb97185ab5f347f0108ec56a9f6a72a4b27998ef8015fc51dde530a450", "__layer": "UCBT_tab", "TEN_CON": null, "POT_INST": null, "DEM_CONT": null }, "geometry": null },
{ "type": "Feature", "properties": { "DIST": 390, "PAC": "32516280737516325L", "RAMAL": "8663354S1", "PN_CON": "449315", "UNI_TR_MT": "14323776", "CTMT": "RBO0108", "UNI_TR_AT": "DRBO-EQ-TR2", "SUB": "DRBO", "CONJ": 12967, "MUN": "3550308", "CEG_GD": " ", "BRR": "R WENCESLAU RALISH 364 JARDIM SERTAOZINHO", "CEP": "04826-240", "CLAS_SUB": "RE1", "CNAE": " ", "TIP_CC": "RES-Tipo02", "FAS_CON": "ABN", "GRU_TEN": "BT", "TEN_FORN": "10", "GRU_TAR": "B1", "SIT_ATIV": "AT", "DAT_CON": "13/06/2017", "CAR_INST": 7.9, "LIV": 0.0, "ARE_LOC": "UB", "TIP_SIST": "RD_INTERLIG", "ENE_01": 0.0, "ENE_02": 0.0, "ENE_03": 218.0, "ENE_04": 223.0, "ENE_05": 226.0, "ENE_06": 238.0, "ENE_07": 262.0, "ENE_08": 227.0, "ENE_09": 246.0, "ENE_10": 258.0, "ENE_11": 247.0, "ENE_12": 227.19, "DIC_01": 0.0, "DIC_02": 0.0, "DIC_03": 0.0, "DIC_04": 1.16, "DIC_05": 0.08, "DIC_06": 0.0, "DIC_07": 0.0, "DIC_08": 0.0, "DIC_09": 0.0, "DIC_10": 0.0, "DIC_11": 0.12, "DIC_12": 0.0, "FIC_01": 0.0, "FIC_02": 0.0, "FIC_03": 0.0, "FIC_04": 1.0, "FIC_05": 1.0, "FIC_06": 0.0, "FIC_07": 0.0, "FIC_08": 0.0, "FIC_09": 0.0, "FIC_10": 0.0, "FIC_11": 1.0, "FIC_12": 0.0, "SEMRED": 0.0, "DESCR": " ", "COD_ID": "c906e6008a61ae8cb503c570a65c487c7c591f1ec49fe7b945a9cffc3c96b893", "__layer": "UCBT_tab", "TEN_CON": null, "POT_INST": null, "DEM_CONT": null }, "geometry": null },
{ "type": "Feature", "properties": { "DIST": 390, "PAC": "32529294737507451L", "RAMAL": "8672450S1", "PN_CON": "452821", "UNI_TR_MT": "14324075", "CTMT": "RBO0108", "UNI_TR_AT": "DRBO-EQ-TR2", "SUB": "DRBO", "CONJ": 12967, "MUN": "3550308", "CEG_GD": " ", "BRR": "R WENCESLAU RALISH 57 JARDIM SERTAOZINHO", "CEP": "04826-240", "CLAS_SUB": "RE1", "CNAE": " ", "TIP_CC": "RES-Tipo05", "FAS_CON": "ABN", "GRU_TEN": "BT", "TEN_FORN": "10", "GRU_TAR": "B1", "SIT_ATIV": "AT", "DAT_CON": "01/09/1985", "CAR_INST": 4.8, "LIV": 0.0, "ARE_LOC": "UB", "TIP_SIST": "RD_INTERLIG", "ENE_01": 179.12, "ENE_02": 363.0, "ENE_03": 326.0, "ENE_04": 336.0, "ENE_05": 334.0, "ENE_06": 413.0, "ENE_07": 415.0, "ENE_08": 369.0, "ENE_09": 331.0, "ENE_10": 382.0, "ENE_11": 357.0, "ENE_12": 348.56, "DIC_01": 0.0, "DIC_02": 0.05, "DIC_03": 0.0, "DIC_04": 0.0, "DIC_05": 0.08, "DIC_06": 0.0, "DIC_07": 0.0, "DIC_08": 0.0, "DIC_09": 0.0, "DIC_10": 0.0, "DIC_11": 0.12, "DIC_12": 0.0, "FIC_01": 0.0, "FIC_02": 1.0, "FIC_03": 0.0, "FIC_04": 0.0, "FIC_05": 1.0, "FIC_06": 0.0, "FIC_07": 0.0, "FIC_08": 0.0, "FIC_09": 0.0, "FIC_10": 0.0, "FIC_11": 1.0, "FIC_12": 0.0, "SEMRED": 0.0, "DESCR": " ", "COD_ID": "27f548e8cafcbe91f38e6f0f3242df119106ed70640c721614a923ea67af2179", "__layer": "UCBT_tab", "TEN_CON": null, "POT_INST": null, "DEM_CONT": null }, "geometry": null },
{ "type": "Feature", "properties": { "DIST": 390, "PAC": "32528048737511927L", "RAMAL": "8670832S1", "PN_CON": "452216", "UNI_TR_MT": "14324075", "CTMT": "RBO0108", "UNI_TR_AT": "DRBO-EQ-TR2", "SUB": "DRBO", "CONJ": 12967, "MUN": "3550308", "CEG_GD": " ", "BRR": "R WENCESLAU RALISH 98 JARDIM SERTAOZINHO", "CEP": "04826-240", "CLAS_SUB": "RE1", "CNAE": " ", "TIP_CC": "RES-Tipo02", "FAS_CON": "ABN", "GRU_TEN": "BT", "TEN_FORN": "10", "GRU_TAR": "B1", "SIT_ATIV": "AT", "DAT_CON": "01/09/1984", "CAR_INST": 3.0, "LIV": 0.0, "ARE_LOC": "UB", "TIP_SIST": "RD_INTERLIG", "ENE_01": 101.06, "ENE_02": 163.0, "ENE_03": 201.0, "ENE_04": 198.0, "ENE_05": 197.0, "ENE_06": 175.0, "ENE_07": 235.0, "ENE_08": 181.0, "ENE_09": 191.0, "ENE_10": 170.0, "ENE_11": 169.0, "ENE_12": 134.95, "DIC_01": 0.0, "DIC_02": 0.05, "DIC_03": 0.0, "DIC_04": 0.0, "DIC_05": 0.08, "DIC_06": 0.0, "DIC_07": 0.0, "DIC_08": 0.0, "DIC_09": 0.0, "DIC_10": 0.0, "DIC_11": 0.12, "DIC_12": 0.0, "FIC_01": 0.0, "FIC_02": 1.0, "FIC_03": 0.0, "FIC_04": 0.0, "FIC_05": 1.0, "FIC_06": 0.0, "FIC_07": 0.0, "FIC_08": 0.0, "FIC_09": 0.0, "FIC_10": 0.0, "FIC_11": 1.0, "FIC_12": 0.0, "SEMRED": 0.0, "DESCR": " ", "COD_ID": "0f03decd2a44919437c303bede4a7da093db4c9e73b7e84c59f0b6d08a7583c3", "__layer": "UCBT_tab", "TEN_CON": null, "POT_INST": null, "DEM_CONT": null }, "geometry": null },
{ "type": "Feature", "properties": { "DIST": 390, "PAC": "32523346737518001L", "RAMAL": "8668195S1", "PN_CON": "451163", "UNI_TR_MT": "14324075", "CTMT": "RBO0108", "UNI_TR_AT": "DRBO-EQ-TR2", "SUB": "DRBO", "CONJ": 12967, "MUN": "3550308", "CEG_GD": " ", "BRR": "R WENCESLAU RALISH 201 JARDIM SERTAOZINHO", "CEP": "04826-240", "CLAS_SUB": "RE1", "CNAE": " ", "TIP_CC": "RES-Tipo04", "FAS_CON": "ABN", "GRU_TEN": "BT", "TEN_FORN": "10", "GRU_TAR": "B1", "SIT_ATIV": "AT", "DAT_CON": "01/07/1985", "CAR_INST": 3.0, "LIV": 0.0, "ARE_LOC": "UB", "TIP_SIST": "RD_INTERLIG", "ENE_01": 114.07, "ENE_02": 188.0, "ENE_03": 260.0, "ENE_04": 228.0, "ENE_05": 227.0, "ENE_06": 219.0, "ENE_07": 258.0, "ENE_08": 236.0, "ENE_09": 229.0, "ENE_10": 269.0, "ENE_11": 234.0, "ENE_12": 231.07, "DIC_01": 0.0, "DIC_02": 0.05, "DIC_03": 0.0, "DIC_04": 0.0, "DIC_05": 0.08, "DIC_06": 0.0, "DIC_07": 0.0, "DIC_08": 0.0, "DIC_09": 0.0, "DIC_10": 0.0, "DIC_11": 0.12, "DIC_12": 0.0, "FIC_01": 0.0, "FIC_02": 1.0, "FIC_03": 0.0, "FIC_04": 0.0, "FIC_05": 1.0, "FIC_06": 0.0, "FIC_07": 0.0, "FIC_08": 0.0, "FIC_09": 0.0, "FIC_10": 0.0, "FIC_11": 1.0, "FIC_12": 0.0, "SEMRED": 0.0, "DESCR": " ", "COD_ID": "8dd415a3130fdc6bf98aa980419d402f0f2aa55a4a380447303ee0687ce13f70", "__layer": "UCBT_tab", "TEN_CON": null, "POT_INST": null, "DEM_CONT": null }, "geometry": null },
{ "type": "Feature", "properties": { "DIST": 390, "PAC": "32522753737521449L", "RAMAL": "8667091S1", "PN_CON": "450710", "UNI_TR_MT": "14324075", "CTMT": "RBO0108", "UNI_TR_AT": "DRBO-EQ-TR2", "SUB": "DRBO", "CONJ": 12967, "MUN": "3550308", "CEG_GD": " ", "BRR": "R WENCESLAU RALISH 186 JARDIM SERTAOZINHO", "CEP": "04826-240", "CLAS_SUB": "RE1", "CNAE": " ", "TIP_CC": "RES-Tipo04", "FAS_CON": "ABN", "GRU_TEN": "BT", "TEN_FORN": "10", "GRU_TAR": "B1", "SIT_ATIV": "AT", "DAT_CON": "01/12/1977", "CAR_INST": 13.3, "LIV": 0.0, "ARE_LOC": "UB", "TIP_SIST": "RD_INTERLIG", "ENE_01": 279.68, "ENE_02": 281.0, "ENE_03": 312.0, "ENE_04": 299.0, "ENE_05": 314.0, "ENE_06": 298.0, "ENE_07": 313.0, "ENE_08": 316.0, "ENE_09": 304.0, "ENE_10": 328.0, "ENE_11": 310.0, "ENE_12": 267.97, "DIC_01": 0.0, "DIC_02": 0.05, "DIC_03": 0.0, "DIC_04": 0.0, "DIC_05": 0.08, "DIC_06": 0.0, "DIC_07": 0.0, "DIC_08": 0.0, "DIC_09": 0.0, "DIC_10": 0.0, "DIC_11": 0.12, "DIC_12": 0.0, "FIC_01": 0.0, "FIC_02": 1.0, "FIC_03": 0.0, "FIC_04": 0.0, "FIC_05": 1.0, "FIC_06": 0.0, "FIC_07": 0.0, "FIC_08": 0.0, "FIC_09": 0.0, "FIC_10": 0.0, "FIC_11": 1.0, "FIC_12": 0.0, "SEMRED": 0.0, "DESCR": " ", "COD_ID": "32429bbfa866ddcbc788875777c87610085c546a4ab3191362cac69a4b09235f", "__layer": "UCBT_tab", "TEN_CON": null, "POT_INST": null, "DEM_CONT": null }, "geometry": null },
{ "type": "Feature", "properties": { "DIST": 390, "PAC": "32527486737510636L", "RAMAL": "8670826S1", "PN_CON": "452216", "UNI_TR_MT": "14324075", "CTMT": "RBO0108", "UNI_TR_AT": "DRBO-EQ-TR2", "SUB": "DRBO", "CONJ": 12967, "MUN": "3550308", "CEG_GD": " ", "BRR": "R WENCESLAU RALISH 75 JARDIM SERTAOZINHO", "CEP": "04826-240", "CLAS_SUB": "RE1", "CNAE": " ", "TIP_CC": "RES-Tipo05", "FAS_CON": "ABN", "GRU_TEN": "BT", "TEN_FORN": "10", "GRU_TAR": "B1", "SIT_ATIV": "AT", "DAT_CON": "01/09/1969", "CAR_INST": 0.3, "LIV": 0.0, "ARE_LOC": "UB", "TIP_SIST": "RD_INTERLIG", "ENE_01": 15.01, "ENE_02": 193.0, "ENE_03": 0.0, "ENE_04": 397.0, "ENE_05": 381.0, "ENE_06": 442.0, "ENE_07": 492.0, "ENE_08": 458.0, "ENE_09": 379.0, "ENE_10": 409.0, "ENE_11": 419.0, "ENE_12": 358.26, "DIC_01": 0.0, "DIC_02": 0.05, "DIC_03": 0.0, "DIC_04": 0.0, "DIC_05": 0.08, "DIC_06": 0.0, "DIC_07": 0.0, "DIC_08": 0.0, "DIC_09": 0.0, "DIC_10": 0.0, "DIC_11": 0.12, "DIC_12": 0.0, "FIC_01": 0.0, "FIC_02": 1.0, "FIC_03": 0.0, "FIC_04": 0.0, "FIC_05": 1.0, "FIC_06": 0.0, "FIC_07": 0.0, "FIC_08": 0.0, "FIC_09": 0.0, "FIC_10": 0.0, "FIC_11": 1.0, "FIC_12": 0.0, "SEMRED": 0.0, "DESCR": " ", "COD_ID": "77191fa9fb8b6cc877e9676a4e6d2271a5df427df220bc638e43c8dc85cefec5", "__layer": "UCBT_tab", "TEN_CON": null, "POT_INST": null, "DEM_CONT": null }, "geometry": null },
{ "type": "Feature", "properties": { "DIST": 390, "PAC": "32516280737516325L", "RAMAL": "8663354S1", "PN_CON": "449315", "UNI_TR_MT": "14323776", "CTMT": "RBO0108", "UNI_TR_AT": "DRBO-EQ-TR2", "SUB": "DRBO", "CONJ": 12967, "MUN": "3550308", "CEG_GD": " ", "BRR": "R WENCESLAU RALISH 364 JARDIM SERTAOZINHO", "CEP": "04826-240", "CLAS_SUB": "RE1", "CNAE": " ", "TIP_CC": "RES-Tipo02", "FAS_CON": "ABN", "GRU_TEN": "BT", "TEN_FORN": "10", "GRU_TAR": "B1", "SIT_ATIV": "AT", "DAT_CON": "01/04/1986", "CAR_INST": 5.0, "LIV": 0.0, "ARE_LOC": "UB", "TIP_SIST": "RD_INTERLIG", "ENE_01": 40.02, "ENE_02": 30.0, "ENE_03": 71.0, "ENE_04": 205.0, "ENE_05": 197.0, "ENE_06": 128.0, "ENE_07": 121.0, "ENE_08": 110.0, "ENE_09": 119.0, "ENE_10": 151.0, "ENE_11": 138.0, "ENE_12": 143.69, "DIC_01": 0.0, "DIC_02": 0.05, "DIC_03": 3.85, "DIC_04": 1.16, "DIC_05": 0.08, "DIC_06": 0.0, "DIC_07": 0.0, "DIC_08": 0.0, "DIC_09": 0.0, "DIC_10": 0.0, "DIC_11": 0.12, "DIC_12": 0.0, "FIC_01": 0.0, "FIC_02": 1.0, "FIC_03": 1.0, "FIC_04": 1.0, "FIC_05": 1.0, "FIC_06": 0.0, "FIC_07": 0.0, "FIC_08": 0.0, "FIC_09": 0.0, "FIC_10": 0.0, "FIC_11": 1.0, "FIC_12": 0.0, "SEMRED": 0.0, "DESCR": " ", "COD_ID": "e348448c14e32d258c4320df0f2e3434ee5e224d09b6895e0f2ba289b1acc8d7", "__layer": "UCBT_tab", "TEN_CON": null, "POT_INST": null, "DEM_CONT": null }, "geometry": null },
{ "type": "Feature", "properties": { "DIST": 390, "PAC": "32523641737517455L", "RAMAL": "8668191S1", "PN_CON": "451163", "UNI_TR_MT": "14324075", "CTMT": "RBO0108", "UNI_TR_AT": "DRBO-EQ-TR2", "SUB": "DRBO", "CONJ": 12967, "MUN": "3550308", "CEG_GD": " ", "BRR": "R WENCESLAU RALISH 147 JARDIM SERTAOZINHO", "CEP": "04826-240", "CLAS_SUB": "RE1", "CNAE": " ", "TIP_CC": "RES-Tipo02", "FAS_CON": "ABN", "GRU_TEN": "BT", "TEN_FORN": "10", "GRU_TAR": "B1", "SIT_ATIV": "AT", "DAT_CON": "15/10/2004", "CAR_INST": 6.0, "LIV": 0.0, "ARE_LOC": "UB", "TIP_SIST": "RD_INTERLIG", "ENE_01": 228.15, "ENE_02": 388.0, "ENE_03": 520.0, "ENE_04": 437.0, "ENE_05": 495.0, "ENE_06": 398.0, "ENE_07": 357.0, "ENE_08": 336.0, "ENE_09": 404.0, "ENE_10": 503.0, "ENE_11": 427.0, "ENE_12": 445.65, "DIC_01": 0.0, "DIC_02": 0.05, "DIC_03": 0.0, "DIC_04": 0.0, "DIC_05": 0.08, "DIC_06": 0.0, "DIC_07": 0.0, "DIC_08": 0.0, "DIC_09": 0.0, "DIC_10": 0.0, "DIC_11": 0.12, "DIC_12": 0.0, "FIC_01": 0.0, "FIC_02": 1.0, "FIC_03": 0.0, "FIC_04": 0.0, "FIC_05": 1.0, "FIC_06": 0.0, "FIC_07": 0.0, "FIC_08": 0.0, "FIC_09": 0.0, "FIC_10": 0.0, "FIC_11": 1.0, "FIC_12": 0.0, "SEMRED": 0.0, "DESCR": " ", "COD_ID": "777558e2f20acc3b8a1b701ab908ffe105a2ac8be890a3807b18e25453386b65", "__layer": "UCBT_tab", "TEN_CON": null, "POT_INST": null, "DEM_CONT": null }, "geometry": null },
{ "type": "Feature", "properties": { "DIST": 390, "PAC": "32530141737508246L", "RAMAL": "8672447S1", "PN_CON": "452821", "UNI_TR_MT": "14324075", "CTMT": "RBO0108", "UNI_TR_AT": "DRBO-EQ-TR2", "SUB": "DRBO", "CONJ": 12967, "MUN": "3550308", "CEG_GD": " ", "BRR": "R WENCESLAU RALISH 60 JARDIM SERTAOZINHO", "CEP": "04826-240", "CLAS_SUB": "RE1", "CNAE": " ", "TIP_CC": "RES-Tipo04", "FAS_CON": "ABN", "GRU_TEN": "BT", "TEN_FORN": "10", "GRU_TAR": "B1", "SIT_ATIV": "AT", "DAT_CON": "13/03/2008", "CAR_INST": 7.4, "LIV": 0.0, "ARE_LOC": "UB", "TIP_SIST": "RD_INTERLIG", "ENE_01": 175.61, "ENE_02": 332.0, "ENE_03": 297.0, "ENE_04": 344.0, "ENE_05": 300.0, "ENE_06": 332.0, "ENE_07": 362.0, "ENE_08": 321.0, "ENE_09": 330.0, "ENE_10": 348.0, "ENE_11": 320.0, "ENE_12": 260.2, "DIC_01": 0.0, "DIC_02": 0.05, "DIC_03": 0.0, "DIC_04": 0.0, "DIC_05": 0.08, "DIC_06": 0.0, "DIC_07": 0.0, "DIC_08": 0.0, "DIC_09": 0.0, "DIC_10": 0.0, "DIC_11": 0.12, "DIC_12": 0.0, "FIC_01": 0.0, "FIC_02": 1.0, "FIC_03": 0.0, "FIC_04": 0.0, "FIC_05": 1.0, "FIC_06": 0.0, "FIC_07": 0.0, "FIC_08": 0.0, "FIC_09": 0.0, "FIC_10": 0.0, "FIC_11": 1.0, "FIC_12": 0.0, "SEMRED": 0.0, "DESCR": " ", "COD_ID": "58cce130c2797a4748384de63ea22a217f7a58950bd7dd544a54bd822ba73cdc", "__layer": "UCBT_tab", "TEN_CON": null, "POT_INST": null, "DEM_CONT": null }, "geometry": null },
{ "type": "Feature", "properties": { "DIST": 390, "PAC": "32514213737520238L", "RAMAL": "8661446S1", "PN_CON": "448585", "UNI_TR_MT": "14323776", "CTMT": "RBO0108", "UNI_TR_AT": "DRBO-EQ-TR2", "SUB": "DRBO", "CONJ": 12967, "MUN": "3550308", "CEG_GD": " ", "BRR": "R WENCESLAU RALISH 328 JARDIM SERTAOZINHO", "CEP": "04826-240", "CLAS_SUB": "RE1", "CNAE": " ", "TIP_CC": "RES-Tipo02", "FAS_CON": "ABN", "GRU_TEN": "BT", "TEN_FORN": "10", "GRU_TAR": "B1", "SIT_ATIV": "AT", "DAT_CON": "13/06/2018", "CAR_INST": 5.9, "LIV": 0.0, "ARE_LOC": "UB", "TIP_SIST": "RD_INTERLIG", "ENE_01": 116.57, "ENE_02": 223.0, "ENE_03": 233.0, "ENE_04": 244.0, "ENE_05": 217.0, "ENE_06": 233.0, "ENE_07": 232.0, "ENE_08": 201.0, "ENE_09": 180.0, "ENE_10": 216.0, "ENE_11": 189.0, "ENE_12": 190.3, "DIC_01": 0.0, "DIC_02": 0.05, "DIC_03": 3.85, "DIC_04": 1.16, "DIC_05": 0.08, "DIC_06": 0.0, "DIC_07": 0.0, "DIC_08": 0.0, "DIC_09": 0.0, "DIC_10": 0.0, "DIC_11": 0.12, "DIC_12": 0.0, "FIC_01": 0.0, "FIC_02": 1.0, "FIC_03": 1.0, "FIC_04": 1.0, "FIC_05": 1.0, "FIC_06": 0.0, "FIC_07": 0.0, "FIC_08": 0.0, "FIC_09": 0.0, "FIC_10": 0.0, "FIC_11": 1.0, "FIC_12": 0.0, "SEMRED": 0.0, "DESCR": " ", "COD_ID": "da6be156843ae8fab38179f33c0105fa0189f3e95047d3e7005c52dd4055b313", "__layer": "UCBT_tab", "TEN_CON": null, "POT_INST": null, "DEM_CONT": null }, "geometry": null },
{ "type": "Feature", "properties": { "DIST": 390, "PAC": "32529649737506813L", "RAMAL": null, "PN_CON": "452821", "UNI_TR_MT": "14324075", "CTMT": "RBO0108", "UNI_TR_AT": "DRBO-EQ-TR2", "SUB": "DRBO", "CONJ": 12967, "MUN": "3550308", "CEG_GD": "GD.SP.002.575.142", "BRR": "R WENCESLAU RALISH 43 JARDIM SERTAOZINHO", "CEP": "04826-240", "CLAS_SUB": null, "CNAE": " ", "TIP_CC": null, "FAS_CON": "ABC", "GRU_TEN": "BT", "TEN_FORN": null, "GRU_TAR": null, "SIT_ATIV": "AT", "DAT_CON": "01/08/1984", "CAR_INST": null, "LIV": null, "ARE_LOC": null, "TIP_SIST": "RD_INTERLIG", "ENE_01": 0.0, "ENE_02": 0.0, "ENE_03": 0.0, "ENE_04": 0.0, "ENE_05": 0.0, "ENE_06": 0.0, "ENE_07": 0.0, "ENE_08": 0.0, "ENE_09": 1412.38, "ENE_10": 426.0, "ENE_11": 379.67, "ENE_12": 307.0, "DIC_01": 0.0, "DIC_02": 0.05, "DIC_03": 0.0, "DIC_04": 0.0, "DIC_05": 0.08, "DIC_06": 0.0, "DIC_07": 0.0, "DIC_08": 0.0, "DIC_09": 0.0, "DIC_10": 0.0, "DIC_11": 0.12, "DIC_12": 0.0, "FIC_01": 0.0, "FIC_02": 1.0, "FIC_03": 0.0, "FIC_04": 0.0, "FIC_05": 1.0, "FIC_06": 0.0, "FIC_07": 0.0, "FIC_08": 0.0, "FIC_09": 0.0, "FIC_10": 0.0, "FIC_11": 1.0, "FIC_12": 0.0, "SEMRED": null, "DESCR": "LEANDRO OLIVEIRA TATTO", "COD_ID": "74ba5de583b17b2dbd0066d057769444f4259a6acabf0a03474df122d5b8f246", "__layer": "UGBT_tab", "TEN_CON": "10", "POT_INST": 5.0, "DEM_CONT": 5.0 }, "geometry": null },
{ "type": "Feature", "properties": { "DIST": 390, "PAC": "32524705737517847L", "RAMAL": null, "PN_CON": "451163", "UNI_TR_MT": "14324075", "CTMT": "RBO0108", "UNI_TR_AT": "DRBO-EQ-TR2", "SUB": "DRBO", "CONJ": 12967, "MUN": "3550308", "CEG_GD": "GD.SP.000.694.884", "BRR": "R WENCESLAU RALISH 132 JARDIM SERTAOZINHO", "CEP": "04826-240", "CLAS_SUB": null, "CNAE": " ", "TIP_CC": null, "FAS_CON": "ABC", "GRU_TEN": "BT", "TEN_FORN": null, "GRU_TAR": null, "SIT_ATIV": "AT", "DAT_CON": "01/10/1984", "CAR_INST": null, "LIV": null, "ARE_LOC": null, "TIP_SIST": "RD_INTERLIG", "ENE_01": 341.0, "ENE_02": 319.54, "ENE_03": 441.0, "ENE_04": 362.64, "ENE_05": 331.5, "ENE_06": 372.64, "ENE_07": 333.5, "ENE_08": 473.6, "ENE_09": 450.05, "ENE_10": 429.0, "ENE_11": 375.13, "ENE_12": 392.0, "DIC_01": 0.0, "DIC_02": 0.05, "DIC_03": 0.0, "DIC_04": 0.0, "DIC_05": 0.08, "DIC_06": 0.0, "DIC_07": 0.0, "DIC_08": 0.0, "DIC_09": 0.0, "DIC_10": 0.0, "DIC_11": 0.12, "DIC_12": 0.0, "FIC_01": 0.0, "FIC_02": 1.0, "FIC_03": 0.0, "FIC_04": 0.0, "FIC_05": 1.0, "FIC_06": 0.0, "FIC_07": 0.0, "FIC_08": 0.0, "FIC_09": 0.0, "FIC_10": 0.0, "FIC_11": 1.0, "FIC_12": 0.0, "SEMRED": null, "DESCR": "FERNANDO ANTONIO GUTIERREZ", "COD_ID": "b4f3efd5d30672c7ea261cffad4be425136b0c094c98c287a9416ffb1bf3ed0a", "__layer": "UGBT_tab", "TEN_CON": "10", "POT_INST": 8.8, "DEM_CONT": 8.8 }, "geometry": null },
{ "type": "Feature", "properties": { "DIST": 390, "PAC": "32524384737518425L", "RAMAL": null, "PN_CON": "451163", "UNI_TR_MT": "14324075", "CTMT": "RBO0108", "UNI_TR_AT": "DRBO-EQ-TR2", "SUB": "DRBO", "CONJ": 12967, "MUN": "3550308", "CEG_GD": "GD.SP.000.618.608", "BRR": "R WENCESLAU RALISH 164 JARDIM SERTAOZINHO", "CEP": "04826-240", "CLAS_SUB": null, "CNAE": " ", "TIP_CC": null, "FAS_CON": "ABC", "GRU_TEN": "BT", "TEN_FORN": null, "GRU_TAR": null, "SIT_ATIV": "AT", "DAT_CON": "01/09/1985", "CAR_INST": null, "LIV": null, "ARE_LOC": null, "TIP_SIST": "RD_INTERLIG", "ENE_01": 235.0, "ENE_02": 257.48, "ENE_03": 388.0, "ENE_04": 273.32, "ENE_05": 276.86, "ENE_06": 233.28, "ENE_07": 173.59, "ENE_08": 234.69, "ENE_09": 285.0, "ENE_10": 324.0, "ENE_11": 255.23, "ENE_12": 283.0, "DIC_01": 0.0, "DIC_02": 0.05, "DIC_03": 0.0, "DIC_04": 0.0, "DIC_05": 0.08, "DIC_06": 0.0, "DIC_07": 0.0, "DIC_08": 0.0, "DIC_09": 0.0, "DIC_10": 0.0, "DIC_11": 0.12, "DIC_12": 0.0, "FIC_01": 0.0, "FIC_02": 1.0, "FIC_03": 0.0, "FIC_04": 0.0, "FIC_05": 1.0, "FIC_06": 0.0, "FIC_07": 0.0, "FIC_08": 0.0, "FIC_09": 0.0, "FIC_10": 0.0, "FIC_11": 1.0, "FIC_12": 0.0, "SEMRED": null, "DESCR": "MAURILIO SILVEIRA DE MELLO", "COD_ID": "0cef35394f64b48f01cd72092d80c60b48c9d60d80c7f7a9cbad9626542b7cee", "__layer": "UGBT_tab", "TEN_CON": "10", "POT_INST": 6.3, "DEM_CONT": 6.3 }, "geometry": null },
{ "type": "Feature", "properties": { "DIST": 390, "PAC": "32524705737517847L", "RAMAL": null, "PN_CON": "451163", "UNI_TR_MT": "14324075", "CTMT": "RBO0108", "UNI_TR_AT": "DRBO-EQ-TR2", "SUB": "DRBO", "CONJ": 12967, "MUN": "3550308", "CEG_GD": "GD.SP.000.694.825", "BRR": "R WENCESLAU RALISH 132 JARDIM SERTAOZINHO", "CEP": "04826-240", "CLAS_SUB": null, "CNAE": " ", "TIP_CC": null, "FAS_CON": "ABC", "GRU_TEN": "BT", "TEN_FORN": null, "GRU_TAR": null, "SIT_ATIV": "AT", "DAT_CON": "16/01/2012", "CAR_INST": null, "LIV": null, "ARE_LOC": null, "TIP_SIST": "RD_INTERLIG", "ENE_01": 233.0, "ENE_02": 186.19, "ENE_03": 355.0, "ENE_04": 319.77, "ENE_05": 217.8, "ENE_06": 224.19, "ENE_07": 208.17, "ENE_08": 212.74, "ENE_09": 318.37, "ENE_10": 313.0, "ENE_11": 246.15, "ENE_12": 328.0, "DIC_01": 0.0, "DIC_02": 0.05, "DIC_03": 0.0, "DIC_04": 0.0, "DIC_05": 0.08, "DIC_06": 0.0, "DIC_07": 0.0, "DIC_08": 0.0, "DIC_09": 0.0, "DIC_10": 0.0, "DIC_11": 0.12, "DIC_12": 0.0, "FIC_01": 0.0, "FIC_02": 1.0, "FIC_03": 0.0, "FIC_04": 0.0, "FIC_05": 1.0, "FIC_06": 0.0, "FIC_07": 0.0, "FIC_08": 0.0, "FIC_09": 0.0, "FIC_10": 0.0, "FIC_11": 1.0, "FIC_12": 0.0, "SEMRED": null, "DESCR": "FERNANDO DE MELLO GUTIERREZ", "COD_ID": "e1281a7c00c61fc062341f85fb31f65d4aded603791a8ef77f2719e674364283", "__layer": "UGBT_tab", "TEN_CON": "10", "POT_INST": 7.6, "DEM_CONT": 7.6 }, "geometry": null }
]
}
